{"type": "FeatureCollection", "features": [{"type": "Feature", "geometry": {"type": "Polygon", "coordinates": [[[-115.0, 7.0], [-106.0, 7.0], [-106.0, 12.0], [-115.0, 12.0], [-115.0, 7.0]]]}, "properties": {"has_valid_points": "True", "lat_slice_start": 0, "lat_slice_stop": 500, "lon_slice_start": 5400, "lon_slice_stop": 6300, "lat_chunk_ix": 0, "lon_chunk_ix": 6}}, {"type": "Feature", "geometry": {"type": "Polygon", "coordinates": [[[-88.0, 7.0], [-79.0, 7.0], [-79.0, 12.0], [-88.0, 12.0], [-88.0, 7.0]]]}, "properties": {"has_valid_points": "True", "lat_slice_start": 0, "lat_slice_stop": 500, "lon_slice_start": 8100, "lon_slice_stop": 9000, "lat_chunk_ix": 0, "lon_chunk_ix": 9}}, {"type": "Feature", "geometry": {"type": "Polygon", "coordinates": [[[-79.0, 7.0], [-70.0, 7.0], [-70.0, 12.0], [-79.0, 12.0], [-79.0, 7.0]]]}, "properties": {"has_valid_points": "True", "lat_slice_start": 0, "lat_slice_stop": 500, "lon_slice_start": 9000, "lon_slice_stop": 9900, "lat_chunk_ix": 0, "lon_chunk_ix": 10}}, {"type": "Feature", "geometry": {"type": "Polygon", "coordinates": [[[-70.0, 7.0], [-61.0, 7.0], [-61.0, 12.0], [-70.0, 12.0], [-70.0, 7.0]]]}, "properties": {"has_valid_points": "True", "lat_slice_start": 0, "lat_slice_stop": 500, "lon_slice_start": 9900, "lon_slice_stop": 10800, "lat_chunk_ix": 0, "lon_chunk_ix": 11}}, {"type": "Feature", "geometry": {"type": "Polygon", "coordinates": [[[-61.0, 7.0], [-52.0, 7.0], [-52.0, 12.0], [-61.0, 12.0], [-61.0, 7.0]]]}, "properties": {"has_valid_points": "True", "lat_slice_start": 0, "lat_slice_stop": 500, "lon_slice_start": 10800, "lon_slice_stop": 11700, "lat_chunk_ix": 0, "lon_chunk_ix": 12}}, {"type": "Feature", "geometry": {"type": "Polygon", "coordinates": [[[-106.0, 12.0], [-97.0, 12.0], [-97.0, 17.0], [-106.0, 17.0], [-106.0, 12.0]]]}, "properties": {"has_valid_points": "True", "lat_slice_start": 500, "lat_slice_stop": 1000, "lon_slice_start": 6300, "lon_slice_stop": 7200, "lat_chunk_ix": 1, "lon_chunk_ix": 7}}, {"type": "Feature", "geometry": {"type": "Polygon", "coordinates": [[[-97.0, 12.0], [-88.0, 12.0], [-88.0, 17.0], [-97.0, 17.0], [-97.0, 12.0]]]}, "properties": {"has_valid_points": "True", "lat_slice_start": 500, "lat_slice_stop": 1000, "lon_slice_start": 7200, "lon_slice_stop": 8100, "lat_chunk_ix": 1, "lon_chunk_ix": 8}}, {"type": "Feature", "geometry": {"type": "Polygon", "coordinates": [[[-88.0, 12.0], [-79.0, 12.0], [-79.0, 17.0], [-88.0, 17.0], [-88.0, 12.0]]]}, "properties": {"has_valid_points": "True", "lat_slice_start": 500, "lat_slice_stop": 1000, "lon_slice_start": 8100, "lon_slice_stop": 9000, "lat_chunk_ix": 1, "lon_chunk_ix": 9}}, {"type": "Feature", "geometry": {"type": "Polygon", "coordinates": [[[-79.0, 12.0], [-70.0, 12.0], [-70.0, 17.0], [-79.0, 17.0], [-79.0, 12.0]]]}, "properties": {"has_valid_points": "True", "lat_slice_start": 500, "lat_slice_stop": 1000, "lon_slice_start": 9000, "lon_slice_stop": 9900, "lat_chunk_ix": 1, "lon_chunk_ix": 10}}, {"type": "Feature", "geometry": {"type": "Polygon", "coordinates": [[[-70.0, 12.0], [-61.0, 12.0], [-61.0, 17.0], [-70.0, 17.0], [-70.0, 12.0]]]}, "properties": {"has_valid_points": "True", "lat_slice_start": 500, "lat_slice_stop": 1000, "lon_slice_start": 9900, "lon_slice_stop": 10800, "lat_chunk_ix": 1, "lon_chunk_ix": 11}}, {"type": "Feature", "geometry": {"type": "Polygon", "coordinates": [[[-61.0, 12.0], [-52.0, 12.0], [-52.0, 17.0], [-61.0, 17.0], [-61.0, 12.0]]]}, "properties": {"has_valid_points": "True", "lat_slice_start": 500, "lat_slice_stop": 1000, "lon_slice_start": 10800, "lon_slice_stop": 11700, "lat_chunk_ix": 1, "lon_chunk_ix": 12}}, {"type": "Feature", "geometry": {"type": "Polygon", "coordinates": [[[-169.0, 17.0], [-160.0, 17.0], [-160.0, 22.0], [-169.0, 22.0], [-169.0, 17.0]]]}, "properties": {"has_valid_points": "True", "lat_slice_start": 1000, "lat_slice_stop": 1500, "lon_slice_start": 0, "lon_slice_stop": 900, "lat_chunk_ix": 2, "lon_chunk_ix": 0}}, {"type": "Feature", "geometry": {"type": "Polygon", "coordinates": [[[-160.0, 17.0], [-151.0, 17.0], [-151.0, 22.0], [-160.0, 22.0], [-160.0, 17.0]]]}, "properties": {"has_valid_points": "True", "lat_slice_start": 1000, "lat_slice_stop": 1500, "lon_slice_start": 900, "lon_slice_stop": 1800, "lat_chunk_ix": 2, "lon_chunk_ix": 1}}, {"type": "Feature", "geometry": {"type": "Polygon", "coordinates": [[[-115.0, 17.0], [-106.0, 17.0], [-106.0, 22.0], [-115.0, 22.0], [-115.0, 17.0]]]}, "properties": {"has_valid_points": "True", "lat_slice_start": 1000, "lat_slice_stop": 1500, "lon_slice_start": 5400, "lon_slice_stop": 6300, "lat_chunk_ix": 2, "lon_chunk_ix": 6}}, {"type": "Feature", "geometry": {"type": "Polygon", "coordinates": [[[-106.0, 17.0], [-97.0, 17.0], [-97.0, 22.0], [-106.0, 22.0], [-106.0, 17.0]]]}, "properties": {"has_valid_points": "True", "lat_slice_start": 1000, "lat_slice_stop": 1500, "lon_slice_start": 6300, "lon_slice_stop": 7200, "lat_chunk_ix": 2, "lon_chunk_ix": 7}}, {"type": "Feature", "geometry": {"type": "Polygon", "coordinates": [[[-97.0, 17.0], [-88.0, 17.0], [-88.0, 22.0], [-97.0, 22.0], [-97.0, 17.0]]]}, "properties": {"has_valid_points": "True", "lat_slice_start": 1000, "lat_slice_stop": 1500, "lon_slice_start": 7200, "lon_slice_stop": 8100, "lat_chunk_ix": 2, "lon_chunk_ix": 8}}, {"type": "Feature", "geometry": {"type": "Polygon", "coordinates": [[[-88.0, 17.0], [-79.0, 17.0], [-79.0, 22.0], [-88.0, 22.0], [-88.0, 17.0]]]}, "properties": {"has_valid_points": "True", "lat_slice_start": 1000, "lat_slice_stop": 1500, "lon_slice_start": 8100, "lon_slice_stop": 9000, "lat_chunk_ix": 2, "lon_chunk_ix": 9}}, {"type": "Feature", "geometry": {"type": "Polygon", "coordinates": [[[-79.0, 17.0], [-70.0, 17.0], [-70.0, 22.0], [-79.0, 22.0], [-79.0, 17.0]]]}, "properties": {"has_valid_points": "True", "lat_slice_start": 1000, "lat_slice_stop": 1500, "lon_slice_start": 9000, "lon_slice_stop": 9900, "lat_chunk_ix": 2, "lon_chunk_ix": 10}}, {"type": "Feature", "geometry": {"type": "Polygon", "coordinates": [[[-70.0, 17.0], [-61.0, 17.0], [-61.0, 22.0], [-70.0, 22.0], [-70.0, 17.0]]]}, "properties": {"has_valid_points": "True", "lat_slice_start": 1000, "lat_slice_stop": 1500, "lon_slice_start": 9900, "lon_slice_stop": 10800, "lat_chunk_ix": 2, "lon_chunk_ix": 11}}, {"type": "Feature", "geometry": {"type": "Polygon", "coordinates": [[[-169.0, 22.0], [-160.0, 22.0], [-160.0, 27.0], [-169.0, 27.0], [-169.0, 22.0]]]}, "properties": {"has_valid_points": "True", "lat_slice_start": 1500, "lat_slice_stop": 2000, "lon_slice_start": 0, "lon_slice_stop": 900, "lat_chunk_ix": 3, "lon_chunk_ix": 0}}, {"type": "Feature", "geometry": {"type": "Polygon", "coordinates": [[[-160.0, 22.0], [-151.0, 22.0], [-151.0, 27.0], [-160.0, 27.0], [-160.0, 22.0]]]}, "properties": {"has_valid_points": "True", "lat_slice_start": 1500, "lat_slice_stop": 2000, "lon_slice_start": 900, "lon_slice_stop": 1800, "lat_chunk_ix": 3, "lon_chunk_ix": 1}}, {"type": "Feature", "geometry": {"type": "Polygon", "coordinates": [[[-115.0, 22.0], [-106.0, 22.0], [-106.0, 27.0], [-115.0, 27.0], [-115.0, 22.0]]]}, "properties": {"has_valid_points": "True", "lat_slice_start": 1500, "lat_slice_stop": 2000, "lon_slice_start": 5400, "lon_slice_stop": 6300, "lat_chunk_ix": 3, "lon_chunk_ix": 6}}, {"type": "Feature", "geometry": {"type": "Polygon", "coordinates": [[[-106.0, 22.0], [-97.0, 22.0], [-97.0, 27.0], [-106.0, 27.0], [-106.0, 22.0]]]}, "properties": {"has_valid_points": "True", "lat_slice_start": 1500, "lat_slice_stop": 2000, "lon_slice_start": 6300, "lon_slice_stop": 7200, "lat_chunk_ix": 3, "lon_chunk_ix": 7}}, {"type": "Feature", "geometry": {"type": "Polygon", "coordinates": [[[-88.0, 22.0], [-79.0, 22.0], [-79.0, 27.0], [-88.0, 27.0], [-88.0, 22.0]]]}, "properties": {"has_valid_points": "True", "lat_slice_start": 1500, "lat_slice_stop": 2000, "lon_slice_start": 8100, "lon_slice_stop": 9000, "lat_chunk_ix": 3, "lon_chunk_ix": 9}}, {"type": "Feature", "geometry": {"type": "Polygon", "coordinates": [[[-79.0, 22.0], [-70.0, 22.0], [-70.0, 27.0], [-79.0, 27.0], [-79.0, 22.0]]]}, "properties": {"has_valid_points": "True", "lat_slice_start": 1500, "lat_slice_stop": 2000, "lon_slice_start": 9000, "lon_slice_stop": 9900, "lat_chunk_ix": 3, "lon_chunk_ix": 10}}, {"type": "Feature", "geometry": {"type": "Polygon", "coordinates": [[[-124.0, 27.0], [-115.0, 27.0], [-115.0, 32.0], [-124.0, 32.0], [-124.0, 27.0]]]}, "properties": {"has_valid_points": "True", "lat_slice_start": 2000, "lat_slice_stop": 2500, "lon_slice_start": 4500, "lon_slice_stop": 5400, "lat_chunk_ix": 4, "lon_chunk_ix": 5}}, {"type": "Feature", "geometry": {"type": "Polygon", "coordinates": [[[-115.0, 27.0], [-106.0, 27.0], [-106.0, 32.0], [-115.0, 32.0], [-115.0, 27.0]]]}, "properties": {"has_valid_points": "True", "lat_slice_start": 2000, "lat_slice_stop": 2500, "lon_slice_start": 5400, "lon_slice_stop": 6300, "lat_chunk_ix": 4, "lon_chunk_ix": 6}}, {"type": "Feature", "geometry": {"type": "Polygon", "coordinates": [[[-106.0, 27.0], [-97.0, 27.0], [-97.0, 32.0], [-106.0, 32.0], [-106.0, 27.0]]]}, "properties": {"has_valid_points": "True", "lat_slice_start": 2000, "lat_slice_stop": 2500, "lon_slice_start": 6300, "lon_slice_stop": 7200, "lat_chunk_ix": 4, "lon_chunk_ix": 7}}, {"type": "Feature", "geometry": {"type": "Polygon", "coordinates": [[[-97.0, 27.0], [-88.0, 27.0], [-88.0, 32.0], [-97.0, 32.0], [-97.0, 27.0]]]}, "properties": {"has_valid_points": "True", "lat_slice_start": 2000, "lat_slice_stop": 2500, "lon_slice_start": 7200, "lon_slice_stop": 8100, "lat_chunk_ix": 4, "lon_chunk_ix": 8}}, {"type": "Feature", "geometry": {"type": "Polygon", "coordinates": [[[-88.0, 27.0], [-79.0, 27.0], [-79.0, 32.0], [-88.0, 32.0], [-88.0, 27.0]]]}, "properties": {"has_valid_points": "True", "lat_slice_start": 2000, "lat_slice_stop": 2500, "lon_slice_start": 8100, "lon_slice_stop": 9000, "lat_chunk_ix": 4, "lon_chunk_ix": 9}}, {"type": "Feature", "geometry": {"type": "Polygon", "coordinates": [[[-79.0, 27.0], [-70.0, 27.0], [-70.0, 32.0], [-79.0, 32.0], [-79.0, 27.0]]]}, "properties": {"has_valid_points": "True", "lat_slice_start": 2000, "lat_slice_stop": 2500, "lon_slice_start": 9000, "lon_slice_stop": 9900, "lat_chunk_ix": 4, "lon_chunk_ix": 10}}, {"type": "Feature", "geometry": {"type": "Polygon", "coordinates": [[[-124.0, 32.0], [-115.0, 32.0], [-115.0, 37.0], [-124.0, 37.0], [-124.0, 32.0]]]}, "properties": {"has_valid_points": "True", "lat_slice_start": 2500, "lat_slice_stop": 3000, "lon_slice_start": 4500, "lon_slice_stop": 5400, "lat_chunk_ix": 5, "lon_chunk_ix": 5}}, {"type": "Feature", "geometry": {"type": "Polygon", "coordinates": [[[-115.0, 32.0], [-106.0, 32.0], [-106.0, 37.0], [-115.0, 37.0], [-115.0, 32.0]]]}, "properties": {"has_valid_points": "True", "lat_slice_start": 2500, "lat_slice_stop": 3000, "lon_slice_start": 5400, "lon_slice_stop": 6300, "lat_chunk_ix": 5, "lon_chunk_ix": 6}}, {"type": "Feature", "geometry": {"type": "Polygon", "coordinates": [[[-106.0, 32.0], [-97.0, 32.0], [-97.0, 37.0], [-106.0, 37.0], [-106.0, 32.0]]]}, "properties": {"has_valid_points": "True", "lat_slice_start": 2500, "lat_slice_stop": 3000, "lon_slice_start": 6300, "lon_slice_stop": 7200, "lat_chunk_ix": 5, "lon_chunk_ix": 7}}, {"type": "Feature", "geometry": {"type": "Polygon", "coordinates": [[[-97.0, 32.0], [-88.0, 32.0], [-88.0, 37.0], [-97.0, 37.0], [-97.0, 32.0]]]}, "properties": {"has_valid_points": "True", "lat_slice_start": 2500, "lat_slice_stop": 3000, "lon_slice_start": 7200, "lon_slice_stop": 8100, "lat_chunk_ix": 5, "lon_chunk_ix": 8}}, {"type": "Feature", "geometry": {"type": "Polygon", "coordinates": [[[-88.0, 32.0], [-79.0, 32.0], [-79.0, 37.0], [-88.0, 37.0], [-88.0, 32.0]]]}, "properties": {"has_valid_points": "True", "lat_slice_start": 2500, "lat_slice_stop": 3000, "lon_slice_start": 8100, "lon_slice_stop": 9000, "lat_chunk_ix": 5, "lon_chunk_ix": 9}}, {"type": "Feature", "geometry": {"type": "Polygon", "coordinates": [[[-79.0, 32.0], [-70.0, 32.0], [-70.0, 37.0], [-79.0, 37.0], [-79.0, 32.0]]]}, "properties": {"has_valid_points": "True", "lat_slice_start": 2500, "lat_slice_stop": 3000, "lon_slice_start": 9000, "lon_slice_stop": 9900, "lat_chunk_ix": 5, "lon_chunk_ix": 10}}, {"type": "Feature", "geometry": {"type": "Polygon", "coordinates": [[[-70.0, 32.0], [-61.0, 32.0], [-61.0, 37.0], [-70.0, 37.0], [-70.0, 32.0]]]}, "properties": {"has_valid_points": "True", "lat_slice_start": 2500, "lat_slice_stop": 3000, "lon_slice_start": 9900, "lon_slice_stop": 10800, "lat_chunk_ix": 5, "lon_chunk_ix": 11}}, {"type": "Feature", "geometry": {"type": "Polygon", "coordinates": [[[-133.0, 37.0], [-124.0, 37.0], [-124.0, 42.0], [-133.0, 42.0], [-133.0, 37.0]]]}, "properties": {"has_valid_points": "True", "lat_slice_start": 3000, "lat_slice_stop": 3500, "lon_slice_start": 3600, "lon_slice_stop": 4500, "lat_chunk_ix": 6, "lon_chunk_ix": 4}}, {"type": "Feature", "geometry": {"type": "Polygon", "coordinates": [[[-124.0, 37.0], [-115.0, 37.0], [-115.0, 42.0], [-124.0, 42.0], [-124.0, 37.0]]]}, "properties": {"has_valid_points": "True", "lat_slice_start": 3000, "lat_slice_stop": 3500, "lon_slice_start": 4500, "lon_slice_stop": 5400, "lat_chunk_ix": 6, "lon_chunk_ix": 5}}, {"type": "Feature", "geometry": {"type": "Polygon", "coordinates": [[[-115.0, 37.0], [-106.0, 37.0], [-106.0, 42.0], [-115.0, 42.0], [-115.0, 37.0]]]}, "properties": {"has_valid_points": "True", "lat_slice_start": 3000, "lat_slice_stop": 3500, "lon_slice_start": 5400, "lon_slice_stop": 6300, "lat_chunk_ix": 6, "lon_chunk_ix": 6}}, {"type": "Feature", "geometry": {"type": "Polygon", "coordinates": [[[-106.0, 37.0], [-97.0, 37.0], [-97.0, 42.0], [-106.0, 42.0], [-106.0, 37.0]]]}, "properties": {"has_valid_points": "True", "lat_slice_start": 3000, "lat_slice_stop": 3500, "lon_slice_start": 6300, "lon_slice_stop": 7200, "lat_chunk_ix": 6, "lon_chunk_ix": 7}}, {"type": "Feature", "geometry": {"type": "Polygon", "coordinates": [[[-97.0, 37.0], [-88.0, 37.0], [-88.0, 42.0], [-97.0, 42.0], [-97.0, 37.0]]]}, "properties": {"has_valid_points": "True", "lat_slice_start": 3000, "lat_slice_stop": 3500, "lon_slice_start": 7200, "lon_slice_stop": 8100, "lat_chunk_ix": 6, "lon_chunk_ix": 8}}, {"type": "Feature", "geometry": {"type": "Polygon", "coordinates": [[[-88.0, 37.0], [-79.0, 37.0], [-79.0, 42.0], [-88.0, 42.0], [-88.0, 37.0]]]}, "properties": {"has_valid_points": "True", "lat_slice_start": 3000, "lat_slice_stop": 3500, "lon_slice_start": 8100, "lon_slice_stop": 9000, "lat_chunk_ix": 6, "lon_chunk_ix": 9}}, {"type": "Feature", "geometry": {"type": "Polygon", "coordinates": [[[-79.0, 37.0], [-70.0, 37.0], [-70.0, 42.0], [-79.0, 42.0], [-79.0, 37.0]]]}, "properties": {"has_valid_points": "True", "lat_slice_start": 3000, "lat_slice_stop": 3500, "lon_slice_start": 9000, "lon_slice_stop": 9900, "lat_chunk_ix": 6, "lon_chunk_ix": 10}}, {"type": "Feature", "geometry": {"type": "Polygon", "coordinates": [[[-70.0, 37.0], [-61.0, 37.0], [-61.0, 42.0], [-70.0, 42.0], [-70.0, 37.0]]]}, "properties": {"has_valid_points": "True", "lat_slice_start": 3000, "lat_slice_stop": 3500, "lon_slice_start": 9900, "lon_slice_stop": 10800, "lat_chunk_ix": 6, "lon_chunk_ix": 11}}, {"type": "Feature", "geometry": {"type": "Polygon", "coordinates": [[[-133.0, 42.0], [-124.0, 42.0], [-124.0, 47.0], [-133.0, 47.0], [-133.0, 42.0]]]}, "properties": {"has_valid_points": "True", "lat_slice_start": 3500, "lat_slice_stop": 4000, "lon_slice_start": 3600, "lon_slice_stop": 4500, "lat_chunk_ix": 7, "lon_chunk_ix": 4}}, {"type": "Feature", "geometry": {"type": "Polygon", "coordinates": [[[-124.0, 42.0], [-115.0, 42.0], [-115.0, 47.0], [-124.0, 47.0], [-124.0, 42.0]]]}, "properties": {"has_valid_points": "True", "lat_slice_start": 3500, "lat_slice_stop": 4000, "lon_slice_start": 4500, "lon_slice_stop": 5400, "lat_chunk_ix": 7, "lon_chunk_ix": 5}}, {"type": "Feature", "geometry": {"type": "Polygon", "coordinates": [[[-115.0, 42.0], [-106.0, 42.0], [-106.0, 47.0], [-115.0, 47.0], [-115.0, 42.0]]]}, "properties": {"has_valid_points": "True", "lat_slice_start": 3500, "lat_slice_stop": 4000, "lon_slice_start": 5400, "lon_slice_stop": 6300, "lat_chunk_ix": 7, "lon_chunk_ix": 6}}, {"type": "Feature", "geometry": {"type": "Polygon", "coordinates": [[[-106.0, 42.0], [-97.0, 42.0], [-97.0, 47.0], [-106.0, 47.0], [-106.0, 42.0]]]}, "properties": {"has_valid_points": "True", "lat_slice_start": 3500, "lat_slice_stop": 4000, "lon_slice_start": 6300, "lon_slice_stop": 7200, "lat_chunk_ix": 7, "lon_chunk_ix": 7}}, {"type": "Feature", "geometry": {"type": "Polygon", "coordinates": [[[-97.0, 42.0], [-88.0, 42.0], [-88.0, 47.0], [-97.0, 47.0], [-97.0, 42.0]]]}, "properties": {"has_valid_points": "True", "lat_slice_start": 3500, "lat_slice_stop": 4000, "lon_slice_start": 7200, "lon_slice_stop": 8100, "lat_chunk_ix": 7, "lon_chunk_ix": 8}}, {"type": "Feature", "geometry": {"type": "Polygon", "coordinates": [[[-88.0, 42.0], [-79.0, 42.0], [-79.0, 47.0], [-88.0, 47.0], [-88.0, 42.0]]]}, "properties": {"has_valid_points": "True", "lat_slice_start": 3500, "lat_slice_stop": 4000, "lon_slice_start": 8100, "lon_slice_stop": 9000, "lat_chunk_ix": 7, "lon_chunk_ix": 9}}, {"type": "Feature", "geometry": {"type": "Polygon", "coordinates": [[[-79.0, 42.0], [-70.0, 42.0], [-70.0, 47.0], [-79.0, 47.0], [-79.0, 42.0]]]}, "properties": {"has_valid_points": "True", "lat_slice_start": 3500, "lat_slice_stop": 4000, "lon_slice_start": 9000, "lon_slice_stop": 9900, "lat_chunk_ix": 7, "lon_chunk_ix": 10}}, {"type": "Feature", "geometry": {"type": "Polygon", "coordinates": [[[-70.0, 42.0], [-61.0, 42.0], [-61.0, 47.0], [-70.0, 47.0], [-70.0, 42.0]]]}, "properties": {"has_valid_points": "True", "lat_slice_start": 3500, "lat_slice_stop": 4000, "lon_slice_start": 9900, "lon_slice_stop": 10800, "lat_chunk_ix": 7, "lon_chunk_ix": 11}}, {"type": "Feature", "geometry": {"type": "Polygon", "coordinates": [[[-61.0, 42.0], [-52.0, 42.0], [-52.0, 47.0], [-61.0, 47.0], [-61.0, 42.0]]]}, "properties": {"has_valid_points": "True", "lat_slice_start": 3500, "lat_slice_stop": 4000, "lon_slice_start": 10800, "lon_slice_stop": 11700, "lat_chunk_ix": 7, "lon_chunk_ix": 12}}, {"type": "Feature", "geometry": {"type": "Polygon", "coordinates": [[[-133.0, 47.0], [-124.0, 47.0], [-124.0, 52.0], [-133.0, 52.0], [-133.0, 47.0]]]}, "properties": {"has_valid_points": "True", "lat_slice_start": 4000, "lat_slice_stop": 4500, "lon_slice_start": 3600, "lon_slice_stop": 4500, "lat_chunk_ix": 8, "lon_chunk_ix": 4}}, {"type": "Feature", "geometry": {"type": "Polygon", "coordinates": [[[-124.0, 47.0], [-115.0, 47.0], [-115.0, 52.0], [-124.0, 52.0], [-124.0, 47.0]]]}, "properties": {"has_valid_points": "True", "lat_slice_start": 4000, "lat_slice_stop": 4500, "lon_slice_start": 4500, "lon_slice_stop": 5400, "lat_chunk_ix": 8, "lon_chunk_ix": 5}}, {"type": "Feature", "geometry": {"type": "Polygon", "coordinates": [[[-115.0, 47.0], [-106.0, 47.0], [-106.0, 52.0], [-115.0, 52.0], [-115.0, 47.0]]]}, "properties": {"has_valid_points": "True", "lat_slice_start": 4000, "lat_slice_stop": 4500, "lon_slice_start": 5400, "lon_slice_stop": 6300, "lat_chunk_ix": 8, "lon_chunk_ix": 6}}, {"type": "Feature", "geometry": {"type": "Polygon", "coordinates": [[[-106.0, 47.0], [-97.0, 47.0], [-97.0, 52.0], [-106.0, 52.0], [-106.0, 47.0]]]}, "properties": {"has_valid_points": "True", "lat_slice_start": 4000, "lat_slice_stop": 4500, "lon_slice_start": 6300, "lon_slice_stop": 7200, "lat_chunk_ix": 8, "lon_chunk_ix": 7}}, {"type": "Feature", "geometry": {"type": "Polygon", "coordinates": [[[-97.0, 47.0], [-88.0, 47.0], [-88.0, 52.0], [-97.0, 52.0], [-97.0, 47.0]]]}, "properties": {"has_valid_points": "True", "lat_slice_start": 4000, "lat_slice_stop": 4500, "lon_slice_start": 7200, "lon_slice_stop": 8100, "lat_chunk_ix": 8, "lon_chunk_ix": 8}}, {"type": "Feature", "geometry": {"type": "Polygon", "coordinates": [[[-88.0, 47.0], [-79.0, 47.0], [-79.0, 52.0], [-88.0, 52.0], [-88.0, 47.0]]]}, "properties": {"has_valid_points": "True", "lat_slice_start": 4000, "lat_slice_stop": 4500, "lon_slice_start": 8100, "lon_slice_stop": 9000, "lat_chunk_ix": 8, "lon_chunk_ix": 9}}, {"type": "Feature", "geometry": {"type": "Polygon", "coordinates": [[[-79.0, 47.0], [-70.0, 47.0], [-70.0, 52.0], [-79.0, 52.0], [-79.0, 47.0]]]}, "properties": {"has_valid_points": "True", "lat_slice_start": 4000, "lat_slice_stop": 4500, "lon_slice_start": 9000, "lon_slice_stop": 9900, "lat_chunk_ix": 8, "lon_chunk_ix": 10}}, {"type": "Feature", "geometry": {"type": "Polygon", "coordinates": [[[-70.0, 47.0], [-61.0, 47.0], [-61.0, 52.0], [-70.0, 52.0], [-70.0, 47.0]]]}, "properties": {"has_valid_points": "True", "lat_slice_start": 4000, "lat_slice_stop": 4500, "lon_slice_start": 9900, "lon_slice_stop": 10800, "lat_chunk_ix": 8, "lon_chunk_ix": 11}}, {"type": "Feature", "geometry": {"type": "Polygon", "coordinates": [[[-61.0, 47.0], [-52.0, 47.0], [-52.0, 52.0], [-61.0, 52.0], [-61.0, 47.0]]]}, "properties": {"has_valid_points": "True", "lat_slice_start": 4000, "lat_slice_stop": 4500, "lon_slice_start": 10800, "lon_slice_stop": 11700, "lat_chunk_ix": 8, "lon_chunk_ix": 12}}, {"type": "Feature", "geometry": {"type": "Polygon", "coordinates": [[[-169.0, 52.0], [-160.0, 52.0], [-160.0, 57.0], [-169.0, 57.0], [-169.0, 52.0]]]}, "properties": {"has_valid_points": "True", "lat_slice_start": 4500, "lat_slice_stop": 5000, "lon_slice_start": 0, "lon_slice_stop": 900, "lat_chunk_ix": 9, "lon_chunk_ix": 0}}, {"type": "Feature", "geometry": {"type": "Polygon", "coordinates": [[[-160.0, 52.0], [-151.0, 52.0], [-151.0, 57.0], [-160.0, 57.0], [-160.0, 52.0]]]}, "properties": {"has_valid_points": "True", "lat_slice_start": 4500, "lat_slice_stop": 5000, "lon_slice_start": 900, "lon_slice_stop": 1800, "lat_chunk_ix": 9, "lon_chunk_ix": 1}}, {"type": "Feature", "geometry": {"type": "Polygon", "coordinates": [[[-142.0, 52.0], [-133.0, 52.0], [-133.0, 57.0], [-142.0, 57.0], [-142.0, 52.0]]]}, "properties": {"has_valid_points": "True", "lat_slice_start": 4500, "lat_slice_stop": 5000, "lon_slice_start": 2700, "lon_slice_stop": 3600, "lat_chunk_ix": 9, "lon_chunk_ix": 3}}, {"type": "Feature", "geometry": {"type": "Polygon", "coordinates": [[[-133.0, 52.0], [-124.0, 52.0], [-124.0, 57.0], [-133.0, 57.0], [-133.0, 52.0]]]}, "properties": {"has_valid_points": "True", "lat_slice_start": 4500, "lat_slice_stop": 5000, "lon_slice_start": 3600, "lon_slice_stop": 4500, "lat_chunk_ix": 9, "lon_chunk_ix": 4}}, {"type": "Feature", "geometry": {"type": "Polygon", "coordinates": [[[-124.0, 52.0], [-115.0, 52.0], [-115.0, 57.0], [-124.0, 57.0], [-124.0, 52.0]]]}, "properties": {"has_valid_points": "True", "lat_slice_start": 4500, "lat_slice_stop": 5000, "lon_slice_start": 4500, "lon_slice_stop": 5400, "lat_chunk_ix": 9, "lon_chunk_ix": 5}}, {"type": "Feature", "geometry": {"type": "Polygon", "coordinates": [[[-115.0, 52.0], [-106.0, 52.0], [-106.0, 57.0], [-115.0, 57.0], [-115.0, 52.0]]]}, "properties": {"has_valid_points": "True", "lat_slice_start": 4500, "lat_slice_stop": 5000, "lon_slice_start": 5400, "lon_slice_stop": 6300, "lat_chunk_ix": 9, "lon_chunk_ix": 6}}, {"type": "Feature", "geometry": {"type": "Polygon", "coordinates": [[[-106.0, 52.0], [-97.0, 52.0], [-97.0, 57.0], [-106.0, 57.0], [-106.0, 52.0]]]}, "properties": {"has_valid_points": "True", "lat_slice_start": 4500, "lat_slice_stop": 5000, "lon_slice_start": 6300, "lon_slice_stop": 7200, "lat_chunk_ix": 9, "lon_chunk_ix": 7}}, {"type": "Feature", "geometry": {"type": "Polygon", "coordinates": [[[-97.0, 52.0], [-88.0, 52.0], [-88.0, 57.0], [-97.0, 57.0], [-97.0, 52.0]]]}, "properties": {"has_valid_points": "True", "lat_slice_start": 4500, "lat_slice_stop": 5000, "lon_slice_start": 7200, "lon_slice_stop": 8100, "lat_chunk_ix": 9, "lon_chunk_ix": 8}}, {"type": "Feature", "geometry": {"type": "Polygon", "coordinates": [[[-88.0, 52.0], [-79.0, 52.0], [-79.0, 57.0], [-88.0, 57.0], [-88.0, 52.0]]]}, "properties": {"has_valid_points": "True", "lat_slice_start": 4500, "lat_slice_stop": 5000, "lon_slice_start": 8100, "lon_slice_stop": 9000, "lat_chunk_ix": 9, "lon_chunk_ix": 9}}, {"type": "Feature", "geometry": {"type": "Polygon", "coordinates": [[[-79.0, 52.0], [-70.0, 52.0], [-70.0, 57.0], [-79.0, 57.0], [-79.0, 52.0]]]}, "properties": {"has_valid_points": "True", "lat_slice_start": 4500, "lat_slice_stop": 5000, "lon_slice_start": 9000, "lon_slice_stop": 9900, "lat_chunk_ix": 9, "lon_chunk_ix": 10}}, {"type": "Feature", "geometry": {"type": "Polygon", "coordinates": [[[-70.0, 52.0], [-61.0, 52.0], [-61.0, 57.0], [-70.0, 57.0], [-70.0, 52.0]]]}, "properties": {"has_valid_points": "True", "lat_slice_start": 4500, "lat_slice_stop": 5000, "lon_slice_start": 9900, "lon_slice_stop": 10800, "lat_chunk_ix": 9, "lon_chunk_ix": 11}}, {"type": "Feature", "geometry": {"type": "Polygon", "coordinates": [[[-61.0, 52.0], [-52.0, 52.0], [-52.0, 57.0], [-61.0, 57.0], [-61.0, 52.0]]]}, "properties": {"has_valid_points": "True", "lat_slice_start": 4500, "lat_slice_stop": 5000, "lon_slice_start": 10800, "lon_slice_stop": 11700, "lat_chunk_ix": 9, "lon_chunk_ix": 12}}, {"type": "Feature", "geometry": {"type": "Polygon", "coordinates": [[[-169.0, 57.0], [-160.0, 57.0], [-160.0, 62.0], [-169.0, 62.0], [-169.0, 57.0]]]}, "properties": {"has_valid_points": "True", "lat_slice_start": 5000, "lat_slice_stop": 5500, "lon_slice_start": 0, "lon_slice_stop": 900, "lat_chunk_ix": 10, "lon_chunk_ix": 0}}, {"type": "Feature", "geometry": {"type": "Polygon", "coordinates": [[[-160.0, 57.0], [-151.0, 57.0], [-151.0, 62.0], [-160.0, 62.0], [-160.0, 57.0]]]}, "properties": {"has_valid_points": "True", "lat_slice_start": 5000, "lat_slice_stop": 5500, "lon_slice_start": 900, "lon_slice_stop": 1800, "lat_chunk_ix": 10, "lon_chunk_ix": 1}}, {"type": "Feature", "geometry": {"type": "Polygon", "coordinates": [[[-151.0, 57.0], [-142.0, 57.0], [-142.0, 62.0], [-151.0, 62.0], [-151.0, 57.0]]]}, "properties": {"has_valid_points": "True", "lat_slice_start": 5000, "lat_slice_stop": 5500, "lon_slice_start": 1800, "lon_slice_stop": 2700, "lat_chunk_ix": 10, "lon_chunk_ix": 2}}, {"type": "Feature", "geometry": {"type": "Polygon", "coordinates": [[[-142.0, 57.0], [-133.0, 57.0], [-133.0, 62.0], [-142.0, 62.0], [-142.0, 57.0]]]}, "properties": {"has_valid_points": "True", "lat_slice_start": 5000, "lat_slice_stop": 5500, "lon_slice_start": 2700, "lon_slice_stop": 3600, "lat_chunk_ix": 10, "lon_chunk_ix": 3}}, {"type": "Feature", "geometry": {"type": "Polygon", "coordinates": [[[-133.0, 57.0], [-124.0, 57.0], [-124.0, 62.0], [-133.0, 62.0], [-133.0, 57.0]]]}, "properties": {"has_valid_points": "True", "lat_slice_start": 5000, "lat_slice_stop": 5500, "lon_slice_start": 3600, "lon_slice_stop": 4500, "lat_chunk_ix": 10, "lon_chunk_ix": 4}}, {"type": "Feature", "geometry": {"type": "Polygon", "coordinates": [[[-124.0, 57.0], [-115.0, 57.0], [-115.0, 62.0], [-124.0, 62.0], [-124.0, 57.0]]]}, "properties": {"has_valid_points": "True", "lat_slice_start": 5000, "lat_slice_stop": 5500, "lon_slice_start": 4500, "lon_slice_stop": 5400, "lat_chunk_ix": 10, "lon_chunk_ix": 5}}, {"type": "Feature", "geometry": {"type": "Polygon", "coordinates": [[[-115.0, 57.0], [-106.0, 57.0], [-106.0, 62.0], [-115.0, 62.0], [-115.0, 57.0]]]}, "properties": {"has_valid_points": "True", "lat_slice_start": 5000, "lat_slice_stop": 5500, "lon_slice_start": 5400, "lon_slice_stop": 6300, "lat_chunk_ix": 10, "lon_chunk_ix": 6}}, {"type": "Feature", "geometry": {"type": "Polygon", "coordinates": [[[-106.0, 57.0], [-97.0, 57.0], [-97.0, 62.0], [-106.0, 62.0], [-106.0, 57.0]]]}, "properties": {"has_valid_points": "True", "lat_slice_start": 5000, "lat_slice_stop": 5500, "lon_slice_start": 6300, "lon_slice_stop": 7200, "lat_chunk_ix": 10, "lon_chunk_ix": 7}}, {"type": "Feature", "geometry": {"type": "Polygon", "coordinates": [[[-97.0, 57.0], [-88.0, 57.0], [-88.0, 62.0], [-97.0, 62.0], [-97.0, 57.0]]]}, "properties": {"has_valid_points": "True", "lat_slice_start": 5000, "lat_slice_stop": 5500, "lon_slice_start": 7200, "lon_slice_stop": 8100, "lat_chunk_ix": 10, "lon_chunk_ix": 8}}, {"type": "Feature", "geometry": {"type": "Polygon", "coordinates": [[[-88.0, 57.0], [-79.0, 57.0], [-79.0, 62.0], [-88.0, 62.0], [-88.0, 57.0]]]}, "properties": {"has_valid_points": "True", "lat_slice_start": 5000, "lat_slice_stop": 5500, "lon_slice_start": 8100, "lon_slice_stop": 9000, "lat_chunk_ix": 10, "lon_chunk_ix": 9}}, {"type": "Feature", "geometry": {"type": "Polygon", "coordinates": [[[-79.0, 57.0], [-70.0, 57.0], [-70.0, 62.0], [-79.0, 62.0], [-79.0, 57.0]]]}, "properties": {"has_valid_points": "True", "lat_slice_start": 5000, "lat_slice_stop": 5500, "lon_slice_start": 9000, "lon_slice_stop": 9900, "lat_chunk_ix": 10, "lon_chunk_ix": 10}}, {"type": "Feature", "geometry": {"type": "Polygon", "coordinates": [[[-70.0, 57.0], [-61.0, 57.0], [-61.0, 62.0], [-70.0, 62.0], [-70.0, 57.0]]]}, "properties": {"has_valid_points": "True", "lat_slice_start": 5000, "lat_slice_stop": 5500, "lon_slice_start": 9900, "lon_slice_stop": 10800, "lat_chunk_ix": 10, "lon_chunk_ix": 11}}, {"type": "Feature", "geometry": {"type": "Polygon", "coordinates": [[[-169.0, 62.0], [-160.0, 62.0], [-160.0, 67.0], [-169.0, 67.0], [-169.0, 62.0]]]}, "properties": {"has_valid_points": "True", "lat_slice_start": 5500, "lat_slice_stop": 6000, "lon_slice_start": 0, "lon_slice_stop": 900, "lat_chunk_ix": 11, "lon_chunk_ix": 0}}, {"type": "Feature", "geometry": {"type": "Polygon", "coordinates": [[[-160.0, 62.0], [-151.0, 62.0], [-151.0, 67.0], [-160.0, 67.0], [-160.0, 62.0]]]}, "properties": {"has_valid_points": "True", "lat_slice_start": 5500, "lat_slice_stop": 6000, "lon_slice_start": 900, "lon_slice_stop": 1800, "lat_chunk_ix": 11, "lon_chunk_ix": 1}}, {"type": "Feature", "geometry": {"type": "Polygon", "coordinates": [[[-151.0, 62.0], [-142.0, 62.0], [-142.0, 67.0], [-151.0, 67.0], [-151.0, 62.0]]]}, "properties": {"has_valid_points": "True", "lat_slice_start": 5500, "lat_slice_stop": 6000, "lon_slice_start": 1800, "lon_slice_stop": 2700, "lat_chunk_ix": 11, "lon_chunk_ix": 2}}, {"type": "Feature", "geometry": {"type": "Polygon", "coordinates": [[[-142.0, 62.0], [-133.0, 62.0], [-133.0, 67.0], [-142.0, 67.0], [-142.0, 62.0]]]}, "properties": {"has_valid_points": "True", "lat_slice_start": 5500, "lat_slice_stop": 6000, "lon_slice_start": 2700, "lon_slice_stop": 3600, "lat_chunk_ix": 11, "lon_chunk_ix": 3}}, {"type": "Feature", "geometry": {"type": "Polygon", "coordinates": [[[-133.0, 62.0], [-124.0, 62.0], [-124.0, 67.0], [-133.0, 67.0], [-133.0, 62.0]]]}, "properties": {"has_valid_points": "True", "lat_slice_start": 5500, "lat_slice_stop": 6000, "lon_slice_start": 3600, "lon_slice_stop": 4500, "lat_chunk_ix": 11, "lon_chunk_ix": 4}}, {"type": "Feature", "geometry": {"type": "Polygon", "coordinates": [[[-124.0, 62.0], [-115.0, 62.0], [-115.0, 67.0], [-124.0, 67.0], [-124.0, 62.0]]]}, "properties": {"has_valid_points": "True", "lat_slice_start": 5500, "lat_slice_stop": 6000, "lon_slice_start": 4500, "lon_slice_stop": 5400, "lat_chunk_ix": 11, "lon_chunk_ix": 5}}, {"type": "Feature", "geometry": {"type": "Polygon", "coordinates": [[[-115.0, 62.0], [-106.0, 62.0], [-106.0, 67.0], [-115.0, 67.0], [-115.0, 62.0]]]}, "properties": {"has_valid_points": "True", "lat_slice_start": 5500, "lat_slice_stop": 6000, "lon_slice_start": 5400, "lon_slice_stop": 6300, "lat_chunk_ix": 11, "lon_chunk_ix": 6}}, {"type": "Feature", "geometry": {"type": "Polygon", "coordinates": [[[-106.0, 62.0], [-97.0, 62.0], [-97.0, 67.0], [-106.0, 67.0], [-106.0, 62.0]]]}, "properties": {"has_valid_points": "True", "lat_slice_start": 5500, "lat_slice_stop": 6000, "lon_slice_start": 6300, "lon_slice_stop": 7200, "lat_chunk_ix": 11, "lon_chunk_ix": 7}}, {"type": "Feature", "geometry": {"type": "Polygon", "coordinates": [[[-97.0, 62.0], [-88.0, 62.0], [-88.0, 67.0], [-97.0, 67.0], [-97.0, 62.0]]]}, "properties": {"has_valid_points": "True", "lat_slice_start": 5500, "lat_slice_stop": 6000, "lon_slice_start": 7200, "lon_slice_stop": 8100, "lat_chunk_ix": 11, "lon_chunk_ix": 8}}, {"type": "Feature", "geometry": {"type": "Polygon", "coordinates": [[[-88.0, 62.0], [-79.0, 62.0], [-79.0, 67.0], [-88.0, 67.0], [-88.0, 62.0]]]}, "properties": {"has_valid_points": "True", "lat_slice_start": 5500, "lat_slice_stop": 6000, "lon_slice_start": 8100, "lon_slice_stop": 9000, "lat_chunk_ix": 11, "lon_chunk_ix": 9}}, {"type": "Feature", "geometry": {"type": "Polygon", "coordinates": [[[-79.0, 62.0], [-70.0, 62.0], [-70.0, 67.0], [-79.0, 67.0], [-79.0, 62.0]]]}, "properties": {"has_valid_points": "True", "lat_slice_start": 5500, "lat_slice_stop": 6000, "lon_slice_start": 9000, "lon_slice_stop": 9900, "lat_chunk_ix": 11, "lon_chunk_ix": 10}}, {"type": "Feature", "geometry": {"type": "Polygon", "coordinates": [[[-70.0, 62.0], [-61.0, 62.0], [-61.0, 67.0], [-70.0, 67.0], [-70.0, 62.0]]]}, "properties": {"has_valid_points": "True", "lat_slice_start": 5500, "lat_slice_stop": 6000, "lon_slice_start": 9900, "lon_slice_stop": 10800, "lat_chunk_ix": 11, "lon_chunk_ix": 11}}, {"type": "Feature", "geometry": {"type": "Polygon", "coordinates": [[[-169.0, 67.0], [-160.0, 67.0], [-160.0, 72.0], [-169.0, 72.0], [-169.0, 67.0]]]}, "properties": {"has_valid_points": "True", "lat_slice_start": 6000, "lat_slice_stop": 6500, "lon_slice_start": 0, "lon_slice_stop": 900, "lat_chunk_ix": 12, "lon_chunk_ix": 0}}, {"type": "Feature", "geometry": {"type": "Polygon", "coordinates": [[[-160.0, 67.0], [-151.0, 67.0], [-151.0, 72.0], [-160.0, 72.0], [-160.0, 67.0]]]}, "properties": {"has_valid_points": "True", "lat_slice_start": 6000, "lat_slice_stop": 6500, "lon_slice_start": 900, "lon_slice_stop": 1800, "lat_chunk_ix": 12, "lon_chunk_ix": 1}}, {"type": "Feature", "geometry": {"type": "Polygon", "coordinates": [[[-151.0, 67.0], [-142.0, 67.0], [-142.0, 72.0], [-151.0, 72.0], [-151.0, 67.0]]]}, "properties": {"has_valid_points": "True", "lat_slice_start": 6000, "lat_slice_stop": 6500, "lon_slice_start": 1800, "lon_slice_stop": 2700, "lat_chunk_ix": 12, "lon_chunk_ix": 2}}, {"type": "Feature", "geometry": {"type": "Polygon", "coordinates": [[[-142.0, 67.0], [-133.0, 67.0], [-133.0, 72.0], [-142.0, 72.0], [-142.0, 67.0]]]}, "properties": {"has_valid_points": "True", "lat_slice_start": 6000, "lat_slice_stop": 6500, "lon_slice_start": 2700, "lon_slice_stop": 3600, "lat_chunk_ix": 12, "lon_chunk_ix": 3}}, {"type": "Feature", "geometry": {"type": "Polygon", "coordinates": [[[-133.0, 67.0], [-124.0, 67.0], [-124.0, 72.0], [-133.0, 72.0], [-133.0, 67.0]]]}, "properties": {"has_valid_points": "True", "lat_slice_start": 6000, "lat_slice_stop": 6500, "lon_slice_start": 3600, "lon_slice_stop": 4500, "lat_chunk_ix": 12, "lon_chunk_ix": 4}}, {"type": "Feature", "geometry": {"type": "Polygon", "coordinates": [[[-124.0, 67.0], [-115.0, 67.0], [-115.0, 72.0], [-124.0, 72.0], [-124.0, 67.0]]]}, "properties": {"has_valid_points": "True", "lat_slice_start": 6000, "lat_slice_stop": 6500, "lon_slice_start": 4500, "lon_slice_stop": 5400, "lat_chunk_ix": 12, "lon_chunk_ix": 5}}, {"type": "Feature", "geometry": {"type": "Polygon", "coordinates": [[[-115.0, 67.0], [-106.0, 67.0], [-106.0, 72.0], [-115.0, 72.0], [-115.0, 67.0]]]}, "properties": {"has_valid_points": "True", "lat_slice_start": 6000, "lat_slice_stop": 6500, "lon_slice_start": 5400, "lon_slice_stop": 6300, "lat_chunk_ix": 12, "lon_chunk_ix": 6}}, {"type": "Feature", "geometry": {"type": "Polygon", "coordinates": [[[-106.0, 67.0], [-97.0, 67.0], [-97.0, 72.0], [-106.0, 72.0], [-106.0, 67.0]]]}, "properties": {"has_valid_points": "True", "lat_slice_start": 6000, "lat_slice_stop": 6500, "lon_slice_start": 6300, "lon_slice_stop": 7200, "lat_chunk_ix": 12, "lon_chunk_ix": 7}}, {"type": "Feature", "geometry": {"type": "Polygon", "coordinates": [[[-97.0, 67.0], [-88.0, 67.0], [-88.0, 72.0], [-97.0, 72.0], [-97.0, 67.0]]]}, "properties": {"has_valid_points": "True", "lat_slice_start": 6000, "lat_slice_stop": 6500, "lon_slice_start": 7200, "lon_slice_stop": 8100, "lat_chunk_ix": 12, "lon_chunk_ix": 8}}, {"type": "Feature", "geometry": {"type": "Polygon", "coordinates": [[[-88.0, 67.0], [-79.0, 67.0], [-79.0, 72.0], [-88.0, 72.0], [-88.0, 67.0]]]}, "properties": {"has_valid_points": "True", "lat_slice_start": 6000, "lat_slice_stop": 6500, "lon_slice_start": 8100, "lon_slice_stop": 9000, "lat_chunk_ix": 12, "lon_chunk_ix": 9}}, {"type": "Feature", "geometry": {"type": "Polygon", "coordinates": [[[-79.0, 67.0], [-70.0, 67.0], [-70.0, 72.0], [-79.0, 72.0], [-79.0, 67.0]]]}, "properties": {"has_valid_points": "True", "lat_slice_start": 6000, "lat_slice_stop": 6500, "lon_slice_start": 9000, "lon_slice_stop": 9900, "lat_chunk_ix": 12, "lon_chunk_ix": 10}}, {"type": "Feature", "geometry": {"type": "Polygon", "coordinates": [[[-70.0, 67.0], [-61.0, 67.0], [-61.0, 72.0], [-70.0, 72.0], [-70.0, 67.0]]]}, "properties": {"has_valid_points": "True", "lat_slice_start": 6000, "lat_slice_stop": 6500, "lon_slice_start": 9900, "lon_slice_stop": 10800, "lat_chunk_ix": 12, "lon_chunk_ix": 11}}]}