{"type": "FeatureCollection", "features": [{"type": "Feature", "geometry": {"type": "Polygon", "coordinates": [[[-115.0, 7.0], [-106.0, 7.0], [-106.0, 12.0], [-115.0, 12.0], [-115.0, 7.0]]]}, "properties": {"has_land_points": true, "lat_slice_start": 0, "lat_slice_stop": 500, "lon_slice_start": 5400, "lon_slice_stop": 6300, "lat_chunk_ix": 0, "lon_chunk_ix": 6}}, {"type": "Feature", "geometry": {"type": "Polygon", "coordinates": [[[-88.0, 7.0], [-79.0, 7.0], [-79.0, 12.0], [-88.0, 12.0], [-88.0, 7.0]]]}, "properties": {"has_land_points": true, "lat_slice_start": 0, "lat_slice_stop": 500, "lon_slice_start": 8100, "lon_slice_stop": 9000, "lat_chunk_ix": 0, "lon_chunk_ix": 9}}, {"type": "Feature", "geometry": {"type": "Polygon", "coordinates": [[[-79.0, 7.0], [-70.0, 7.0], [-70.0, 12.0], [-79.0, 12.0], [-79.0, 7.0]]]}, "properties": {"has_land_points": true, "lat_slice_start": 0, "lat_slice_stop": 500, "lon_slice_start": 9000, "lon_slice_stop": 9900, "lat_chunk_ix": 0, "lon_chunk_ix": 10}}, {"type": "Feature", "geometry": {"type": "Polygon", "coordinates": [[[-70.0, 7.0], [-61.0, 7.0], [-61.0, 12.0], [-70.0, 12.0], [-70.0, 7.0]]]}, "properties": {"has_land_points": true, "lat_slice_start": 0, "lat_slice_stop": 500, "lon_slice_start": 9900, "lon_slice_stop": 10800, "lat_chunk_ix": 0, "lon_chunk_ix": 11}}, {"type": "Feature", "geometry": {"type": "Polygon", "coordinates": [[[-61.0, 7.0], [-52.0, 7.0], [-52.0, 12.0], [-61.0, 12.0], [-61.0, 7.0]]]}, "properties": {"has_land_points": true, "lat_slice_start": 0, "lat_slice_stop": 500, "lon_slice_start": 10800, "lon_slice_stop": 11700, "lat_chunk_ix": 0, "lon_chunk_ix": 12}}, {"type": "Feature", "geometry": {"type": "Polygon", "coordinates": [[[-106.0, 12.0], [-97.0, 12.0], [-97.0, 17.0], [-106.0, 17.0], [-106.0, 12.0]]]}, "properties": {"has_land_points": true, "lat_slice_start": 500, "lat_slice_stop": 1000, "lon_slice_start": 6300, "lon_slice_stop": 7200, "lat_chunk_ix": 0, "lon_chunk_ix": 20}}, {"type": "Feature", "geometry": {"type": "Polygon", "coordinates": [[[-97.0, 12.0], [-88.0, 12.0], [-88.0, 17.0], [-97.0, 17.0], [-97.0, 12.0]]]}, "properties": {"has_land_points": true, "lat_slice_start": 500, "lat_slice_stop": 1000, "lon_slice_start": 7200, "lon_slice_stop": 8100, "lat_chunk_ix": 0, "lon_chunk_ix": 21}}, {"type": "Feature", "geometry": {"type": "Polygon", "coordinates": [[[-88.0, 12.0], [-79.0, 12.0], [-79.0, 17.0], [-88.0, 17.0], [-88.0, 12.0]]]}, "properties": {"has_land_points": true, "lat_slice_start": 500, "lat_slice_stop": 1000, "lon_slice_start": 8100, "lon_slice_stop": 9000, "lat_chunk_ix": 0, "lon_chunk_ix": 22}}, {"type": "Feature", "geometry": {"type": "Polygon", "coordinates": [[[-79.0, 12.0], [-70.0, 12.0], [-70.0, 17.0], [-79.0, 17.0], [-79.0, 12.0]]]}, "properties": {"has_land_points": true, "lat_slice_start": 500, "lat_slice_stop": 1000, "lon_slice_start": 9000, "lon_slice_stop": 9900, "lat_chunk_ix": 0, "lon_chunk_ix": 23}}, {"type": "Feature", "geometry": {"type": "Polygon", "coordinates": [[[-70.0, 12.0], [-61.0, 12.0], [-61.0, 17.0], [-70.0, 17.0], [-70.0, 12.0]]]}, "properties": {"has_land_points": true, "lat_slice_start": 500, "lat_slice_stop": 1000, "lon_slice_start": 9900, "lon_slice_stop": 10800, "lat_chunk_ix": 0, "lon_chunk_ix": 24}}, {"type": "Feature", "geometry": {"type": "Polygon", "coordinates": [[[-61.0, 12.0], [-52.0, 12.0], [-52.0, 17.0], [-61.0, 17.0], [-61.0, 12.0]]]}, "properties": {"has_land_points": true, "lat_slice_start": 500, "lat_slice_stop": 1000, "lon_slice_start": 10800, "lon_slice_stop": 11700, "lat_chunk_ix": 0, "lon_chunk_ix": 25}}, {"type": "Feature", "geometry": {"type": "Polygon", "coordinates": [[[-169.0, 17.0], [-160.0, 17.0], [-160.0, 22.0], [-169.0, 22.0], [-169.0, 17.0]]]}, "properties": {"has_land_points": true, "lat_slice_start": 1000, "lat_slice_stop": 1500, "lon_slice_start": 0, "lon_slice_stop": 900, "lat_chunk_ix": 0, "lon_chunk_ix": 26}}, {"type": "Feature", "geometry": {"type": "Polygon", "coordinates": [[[-160.0, 17.0], [-151.0, 17.0], [-151.0, 22.0], [-160.0, 22.0], [-160.0, 17.0]]]}, "properties": {"has_land_points": true, "lat_slice_start": 1000, "lat_slice_stop": 1500, "lon_slice_start": 900, "lon_slice_stop": 1800, "lat_chunk_ix": 0, "lon_chunk_ix": 27}}, {"type": "Feature", "geometry": {"type": "Polygon", "coordinates": [[[-115.0, 17.0], [-106.0, 17.0], [-106.0, 22.0], [-115.0, 22.0], [-115.0, 17.0]]]}, "properties": {"has_land_points": true, "lat_slice_start": 1000, "lat_slice_stop": 1500, "lon_slice_start": 5400, "lon_slice_stop": 6300, "lat_chunk_ix": 0, "lon_chunk_ix": 32}}, {"type": "Feature", "geometry": {"type": "Polygon", "coordinates": [[[-106.0, 17.0], [-97.0, 17.0], [-97.0, 22.0], [-106.0, 22.0], [-106.0, 17.0]]]}, "properties": {"has_land_points": true, "lat_slice_start": 1000, "lat_slice_stop": 1500, "lon_slice_start": 6300, "lon_slice_stop": 7200, "lat_chunk_ix": 0, "lon_chunk_ix": 33}}, {"type": "Feature", "geometry": {"type": "Polygon", "coordinates": [[[-97.0, 17.0], [-88.0, 17.0], [-88.0, 22.0], [-97.0, 22.0], [-97.0, 17.0]]]}, "properties": {"has_land_points": true, "lat_slice_start": 1000, "lat_slice_stop": 1500, "lon_slice_start": 7200, "lon_slice_stop": 8100, "lat_chunk_ix": 0, "lon_chunk_ix": 34}}, {"type": "Feature", "geometry": {"type": "Polygon", "coordinates": [[[-88.0, 17.0], [-79.0, 17.0], [-79.0, 22.0], [-88.0, 22.0], [-88.0, 17.0]]]}, "properties": {"has_land_points": true, "lat_slice_start": 1000, "lat_slice_stop": 1500, "lon_slice_start": 8100, "lon_slice_stop": 9000, "lat_chunk_ix": 0, "lon_chunk_ix": 35}}, {"type": "Feature", "geometry": {"type": "Polygon", "coordinates": [[[-79.0, 17.0], [-70.0, 17.0], [-70.0, 22.0], [-79.0, 22.0], [-79.0, 17.0]]]}, "properties": {"has_land_points": true, "lat_slice_start": 1000, "lat_slice_stop": 1500, "lon_slice_start": 9000, "lon_slice_stop": 9900, "lat_chunk_ix": 0, "lon_chunk_ix": 36}}, {"type": "Feature", "geometry": {"type": "Polygon", "coordinates": [[[-70.0, 17.0], [-61.0, 17.0], [-61.0, 22.0], [-70.0, 22.0], [-70.0, 17.0]]]}, "properties": {"has_land_points": true, "lat_slice_start": 1000, "lat_slice_stop": 1500, "lon_slice_start": 9900, "lon_slice_stop": 10800, "lat_chunk_ix": 0, "lon_chunk_ix": 37}}, {"type": "Feature", "geometry": {"type": "Polygon", "coordinates": [[[-169.0, 22.0], [-160.0, 22.0], [-160.0, 27.0], [-169.0, 27.0], [-169.0, 22.0]]]}, "properties": {"has_land_points": true, "lat_slice_start": 1500, "lat_slice_stop": 2000, "lon_slice_start": 0, "lon_slice_stop": 900, "lat_chunk_ix": 0, "lon_chunk_ix": 39}}, {"type": "Feature", "geometry": {"type": "Polygon", "coordinates": [[[-160.0, 22.0], [-151.0, 22.0], [-151.0, 27.0], [-160.0, 27.0], [-160.0, 22.0]]]}, "properties": {"has_land_points": true, "lat_slice_start": 1500, "lat_slice_stop": 2000, "lon_slice_start": 900, "lon_slice_stop": 1800, "lat_chunk_ix": 0, "lon_chunk_ix": 40}}, {"type": "Feature", "geometry": {"type": "Polygon", "coordinates": [[[-115.0, 22.0], [-106.0, 22.0], [-106.0, 27.0], [-115.0, 27.0], [-115.0, 22.0]]]}, "properties": {"has_land_points": true, "lat_slice_start": 1500, "lat_slice_stop": 2000, "lon_slice_start": 5400, "lon_slice_stop": 6300, "lat_chunk_ix": 0, "lon_chunk_ix": 45}}, {"type": "Feature", "geometry": {"type": "Polygon", "coordinates": [[[-106.0, 22.0], [-97.0, 22.0], [-97.0, 27.0], [-106.0, 27.0], [-106.0, 22.0]]]}, "properties": {"has_land_points": true, "lat_slice_start": 1500, "lat_slice_stop": 2000, "lon_slice_start": 6300, "lon_slice_stop": 7200, "lat_chunk_ix": 0, "lon_chunk_ix": 46}}, {"type": "Feature", "geometry": {"type": "Polygon", "coordinates": [[[-88.0, 22.0], [-79.0, 22.0], [-79.0, 27.0], [-88.0, 27.0], [-88.0, 22.0]]]}, "properties": {"has_land_points": true, "lat_slice_start": 1500, "lat_slice_stop": 2000, "lon_slice_start": 8100, "lon_slice_stop": 9000, "lat_chunk_ix": 0, "lon_chunk_ix": 48}}, {"type": "Feature", "geometry": {"type": "Polygon", "coordinates": [[[-79.0, 22.0], [-70.0, 22.0], [-70.0, 27.0], [-79.0, 27.0], [-79.0, 22.0]]]}, "properties": {"has_land_points": true, "lat_slice_start": 1500, "lat_slice_stop": 2000, "lon_slice_start": 9000, "lon_slice_stop": 9900, "lat_chunk_ix": 0, "lon_chunk_ix": 49}}, {"type": "Feature", "geometry": {"type": "Polygon", "coordinates": [[[-124.0, 27.0], [-115.0, 27.0], [-115.0, 32.0], [-124.0, 32.0], [-124.0, 27.0]]]}, "properties": {"has_land_points": true, "lat_slice_start": 2000, "lat_slice_stop": 2500, "lon_slice_start": 4500, "lon_slice_stop": 5400, "lat_chunk_ix": 0, "lon_chunk_ix": 57}}, {"type": "Feature", "geometry": {"type": "Polygon", "coordinates": [[[-115.0, 27.0], [-106.0, 27.0], [-106.0, 32.0], [-115.0, 32.0], [-115.0, 27.0]]]}, "properties": {"has_land_points": true, "lat_slice_start": 2000, "lat_slice_stop": 2500, "lon_slice_start": 5400, "lon_slice_stop": 6300, "lat_chunk_ix": 0, "lon_chunk_ix": 58}}, {"type": "Feature", "geometry": {"type": "Polygon", "coordinates": [[[-106.0, 27.0], [-97.0, 27.0], [-97.0, 32.0], [-106.0, 32.0], [-106.0, 27.0]]]}, "properties": {"has_land_points": true, "lat_slice_start": 2000, "lat_slice_stop": 2500, "lon_slice_start": 6300, "lon_slice_stop": 7200, "lat_chunk_ix": 0, "lon_chunk_ix": 59}}, {"type": "Feature", "geometry": {"type": "Polygon", "coordinates": [[[-97.0, 27.0], [-88.0, 27.0], [-88.0, 32.0], [-97.0, 32.0], [-97.0, 27.0]]]}, "properties": {"has_land_points": true, "lat_slice_start": 2000, "lat_slice_stop": 2500, "lon_slice_start": 7200, "lon_slice_stop": 8100, "lat_chunk_ix": 0, "lon_chunk_ix": 60}}, {"type": "Feature", "geometry": {"type": "Polygon", "coordinates": [[[-88.0, 27.0], [-79.0, 27.0], [-79.0, 32.0], [-88.0, 32.0], [-88.0, 27.0]]]}, "properties": {"has_land_points": true, "lat_slice_start": 2000, "lat_slice_stop": 2500, "lon_slice_start": 8100, "lon_slice_stop": 9000, "lat_chunk_ix": 0, "lon_chunk_ix": 61}}, {"type": "Feature", "geometry": {"type": "Polygon", "coordinates": [[[-79.0, 27.0], [-70.0, 27.0], [-70.0, 32.0], [-79.0, 32.0], [-79.0, 27.0]]]}, "properties": {"has_land_points": true, "lat_slice_start": 2000, "lat_slice_stop": 2500, "lon_slice_start": 9000, "lon_slice_stop": 9900, "lat_chunk_ix": 0, "lon_chunk_ix": 62}}, {"type": "Feature", "geometry": {"type": "Polygon", "coordinates": [[[-124.0, 32.0], [-115.0, 32.0], [-115.0, 37.0], [-124.0, 37.0], [-124.0, 32.0]]]}, "properties": {"has_land_points": true, "lat_slice_start": 2500, "lat_slice_stop": 3000, "lon_slice_start": 4500, "lon_slice_stop": 5400, "lat_chunk_ix": 0, "lon_chunk_ix": 70}}, {"type": "Feature", "geometry": {"type": "Polygon", "coordinates": [[[-115.0, 32.0], [-106.0, 32.0], [-106.0, 37.0], [-115.0, 37.0], [-115.0, 32.0]]]}, "properties": {"has_land_points": true, "lat_slice_start": 2500, "lat_slice_stop": 3000, "lon_slice_start": 5400, "lon_slice_stop": 6300, "lat_chunk_ix": 0, "lon_chunk_ix": 71}}, {"type": "Feature", "geometry": {"type": "Polygon", "coordinates": [[[-106.0, 32.0], [-97.0, 32.0], [-97.0, 37.0], [-106.0, 37.0], [-106.0, 32.0]]]}, "properties": {"has_land_points": true, "lat_slice_start": 2500, "lat_slice_stop": 3000, "lon_slice_start": 6300, "lon_slice_stop": 7200, "lat_chunk_ix": 0, "lon_chunk_ix": 72}}, {"type": "Feature", "geometry": {"type": "Polygon", "coordinates": [[[-97.0, 32.0], [-88.0, 32.0], [-88.0, 37.0], [-97.0, 37.0], [-97.0, 32.0]]]}, "properties": {"has_land_points": true, "lat_slice_start": 2500, "lat_slice_stop": 3000, "lon_slice_start": 7200, "lon_slice_stop": 8100, "lat_chunk_ix": 0, "lon_chunk_ix": 73}}, {"type": "Feature", "geometry": {"type": "Polygon", "coordinates": [[[-88.0, 32.0], [-79.0, 32.0], [-79.0, 37.0], [-88.0, 37.0], [-88.0, 32.0]]]}, "properties": {"has_land_points": true, "lat_slice_start": 2500, "lat_slice_stop": 3000, "lon_slice_start": 8100, "lon_slice_stop": 9000, "lat_chunk_ix": 0, "lon_chunk_ix": 74}}, {"type": "Feature", "geometry": {"type": "Polygon", "coordinates": [[[-79.0, 32.0], [-70.0, 32.0], [-70.0, 37.0], [-79.0, 37.0], [-79.0, 32.0]]]}, "properties": {"has_land_points": true, "lat_slice_start": 2500, "lat_slice_stop": 3000, "lon_slice_start": 9000, "lon_slice_stop": 9900, "lat_chunk_ix": 0, "lon_chunk_ix": 75}}, {"type": "Feature", "geometry": {"type": "Polygon", "coordinates": [[[-70.0, 32.0], [-61.0, 32.0], [-61.0, 37.0], [-70.0, 37.0], [-70.0, 32.0]]]}, "properties": {"has_land_points": true, "lat_slice_start": 2500, "lat_slice_stop": 3000, "lon_slice_start": 9900, "lon_slice_stop": 10800, "lat_chunk_ix": 0, "lon_chunk_ix": 76}}, {"type": "Feature", "geometry": {"type": "Polygon", "coordinates": [[[-133.0, 37.0], [-124.0, 37.0], [-124.0, 42.0], [-133.0, 42.0], [-133.0, 37.0]]]}, "properties": {"has_land_points": true, "lat_slice_start": 3000, "lat_slice_stop": 3500, "lon_slice_start": 3600, "lon_slice_stop": 4500, "lat_chunk_ix": 0, "lon_chunk_ix": 82}}, {"type": "Feature", "geometry": {"type": "Polygon", "coordinates": [[[-124.0, 37.0], [-115.0, 37.0], [-115.0, 42.0], [-124.0, 42.0], [-124.0, 37.0]]]}, "properties": {"has_land_points": true, "lat_slice_start": 3000, "lat_slice_stop": 3500, "lon_slice_start": 4500, "lon_slice_stop": 5400, "lat_chunk_ix": 0, "lon_chunk_ix": 83}}, {"type": "Feature", "geometry": {"type": "Polygon", "coordinates": [[[-115.0, 37.0], [-106.0, 37.0], [-106.0, 42.0], [-115.0, 42.0], [-115.0, 37.0]]]}, "properties": {"has_land_points": true, "lat_slice_start": 3000, "lat_slice_stop": 3500, "lon_slice_start": 5400, "lon_slice_stop": 6300, "lat_chunk_ix": 0, "lon_chunk_ix": 84}}, {"type": "Feature", "geometry": {"type": "Polygon", "coordinates": [[[-106.0, 37.0], [-97.0, 37.0], [-97.0, 42.0], [-106.0, 42.0], [-106.0, 37.0]]]}, "properties": {"has_land_points": true, "lat_slice_start": 3000, "lat_slice_stop": 3500, "lon_slice_start": 6300, "lon_slice_stop": 7200, "lat_chunk_ix": 0, "lon_chunk_ix": 85}}, {"type": "Feature", "geometry": {"type": "Polygon", "coordinates": [[[-97.0, 37.0], [-88.0, 37.0], [-88.0, 42.0], [-97.0, 42.0], [-97.0, 37.0]]]}, "properties": {"has_land_points": true, "lat_slice_start": 3000, "lat_slice_stop": 3500, "lon_slice_start": 7200, "lon_slice_stop": 8100, "lat_chunk_ix": 0, "lon_chunk_ix": 86}}, {"type": "Feature", "geometry": {"type": "Polygon", "coordinates": [[[-88.0, 37.0], [-79.0, 37.0], [-79.0, 42.0], [-88.0, 42.0], [-88.0, 37.0]]]}, "properties": {"has_land_points": true, "lat_slice_start": 3000, "lat_slice_stop": 3500, "lon_slice_start": 8100, "lon_slice_stop": 9000, "lat_chunk_ix": 0, "lon_chunk_ix": 87}}, {"type": "Feature", "geometry": {"type": "Polygon", "coordinates": [[[-79.0, 37.0], [-70.0, 37.0], [-70.0, 42.0], [-79.0, 42.0], [-79.0, 37.0]]]}, "properties": {"has_land_points": true, "lat_slice_start": 3000, "lat_slice_stop": 3500, "lon_slice_start": 9000, "lon_slice_stop": 9900, "lat_chunk_ix": 0, "lon_chunk_ix": 88}}, {"type": "Feature", "geometry": {"type": "Polygon", "coordinates": [[[-70.0, 37.0], [-61.0, 37.0], [-61.0, 42.0], [-70.0, 42.0], [-70.0, 37.0]]]}, "properties": {"has_land_points": true, "lat_slice_start": 3000, "lat_slice_stop": 3500, "lon_slice_start": 9900, "lon_slice_stop": 10800, "lat_chunk_ix": 0, "lon_chunk_ix": 89}}, {"type": "Feature", "geometry": {"type": "Polygon", "coordinates": [[[-133.0, 42.0], [-124.0, 42.0], [-124.0, 47.0], [-133.0, 47.0], [-133.0, 42.0]]]}, "properties": {"has_land_points": true, "lat_slice_start": 3500, "lat_slice_stop": 4000, "lon_slice_start": 3600, "lon_slice_stop": 4500, "lat_chunk_ix": 0, "lon_chunk_ix": 95}}, {"type": "Feature", "geometry": {"type": "Polygon", "coordinates": [[[-124.0, 42.0], [-115.0, 42.0], [-115.0, 47.0], [-124.0, 47.0], [-124.0, 42.0]]]}, "properties": {"has_land_points": true, "lat_slice_start": 3500, "lat_slice_stop": 4000, "lon_slice_start": 4500, "lon_slice_stop": 5400, "lat_chunk_ix": 0, "lon_chunk_ix": 96}}, {"type": "Feature", "geometry": {"type": "Polygon", "coordinates": [[[-115.0, 42.0], [-106.0, 42.0], [-106.0, 47.0], [-115.0, 47.0], [-115.0, 42.0]]]}, "properties": {"has_land_points": true, "lat_slice_start": 3500, "lat_slice_stop": 4000, "lon_slice_start": 5400, "lon_slice_stop": 6300, "lat_chunk_ix": 0, "lon_chunk_ix": 97}}, {"type": "Feature", "geometry": {"type": "Polygon", "coordinates": [[[-106.0, 42.0], [-97.0, 42.0], [-97.0, 47.0], [-106.0, 47.0], [-106.0, 42.0]]]}, "properties": {"has_land_points": true, "lat_slice_start": 3500, "lat_slice_stop": 4000, "lon_slice_start": 6300, "lon_slice_stop": 7200, "lat_chunk_ix": 0, "lon_chunk_ix": 98}}, {"type": "Feature", "geometry": {"type": "Polygon", "coordinates": [[[-97.0, 42.0], [-88.0, 42.0], [-88.0, 47.0], [-97.0, 47.0], [-97.0, 42.0]]]}, "properties": {"has_land_points": true, "lat_slice_start": 3500, "lat_slice_stop": 4000, "lon_slice_start": 7200, "lon_slice_stop": 8100, "lat_chunk_ix": 0, "lon_chunk_ix": 99}}, {"type": "Feature", "geometry": {"type": "Polygon", "coordinates": [[[-88.0, 42.0], [-79.0, 42.0], [-79.0, 47.0], [-88.0, 47.0], [-88.0, 42.0]]]}, "properties": {"has_land_points": true, "lat_slice_start": 3500, "lat_slice_stop": 4000, "lon_slice_start": 8100, "lon_slice_stop": 9000, "lat_chunk_ix": 0, "lon_chunk_ix": 100}}, {"type": "Feature", "geometry": {"type": "Polygon", "coordinates": [[[-79.0, 42.0], [-70.0, 42.0], [-70.0, 47.0], [-79.0, 47.0], [-79.0, 42.0]]]}, "properties": {"has_land_points": true, "lat_slice_start": 3500, "lat_slice_stop": 4000, "lon_slice_start": 9000, "lon_slice_stop": 9900, "lat_chunk_ix": 0, "lon_chunk_ix": 101}}, {"type": "Feature", "geometry": {"type": "Polygon", "coordinates": [[[-70.0, 42.0], [-61.0, 42.0], [-61.0, 47.0], [-70.0, 47.0], [-70.0, 42.0]]]}, "properties": {"has_land_points": true, "lat_slice_start": 3500, "lat_slice_stop": 4000, "lon_slice_start": 9900, "lon_slice_stop": 10800, "lat_chunk_ix": 0, "lon_chunk_ix": 102}}, {"type": "Feature", "geometry": {"type": "Polygon", "coordinates": [[[-61.0, 42.0], [-52.0, 42.0], [-52.0, 47.0], [-61.0, 47.0], [-61.0, 42.0]]]}, "properties": {"has_land_points": true, "lat_slice_start": 3500, "lat_slice_stop": 4000, "lon_slice_start": 10800, "lon_slice_stop": 11700, "lat_chunk_ix": 0, "lon_chunk_ix": 103}}, {"type": "Feature", "geometry": {"type": "Polygon", "coordinates": [[[-133.0, 47.0], [-124.0, 47.0], [-124.0, 52.0], [-133.0, 52.0], [-133.0, 47.0]]]}, "properties": {"has_land_points": true, "lat_slice_start": 4000, "lat_slice_stop": 4500, "lon_slice_start": 3600, "lon_slice_stop": 4500, "lat_chunk_ix": 0, "lon_chunk_ix": 108}}, {"type": "Feature", "geometry": {"type": "Polygon", "coordinates": [[[-124.0, 47.0], [-115.0, 47.0], [-115.0, 52.0], [-124.0, 52.0], [-124.0, 47.0]]]}, "properties": {"has_land_points": true, "lat_slice_start": 4000, "lat_slice_stop": 4500, "lon_slice_start": 4500, "lon_slice_stop": 5400, "lat_chunk_ix": 0, "lon_chunk_ix": 109}}, {"type": "Feature", "geometry": {"type": "Polygon", "coordinates": [[[-115.0, 47.0], [-106.0, 47.0], [-106.0, 52.0], [-115.0, 52.0], [-115.0, 47.0]]]}, "properties": {"has_land_points": true, "lat_slice_start": 4000, "lat_slice_stop": 4500, "lon_slice_start": 5400, "lon_slice_stop": 6300, "lat_chunk_ix": 0, "lon_chunk_ix": 110}}, {"type": "Feature", "geometry": {"type": "Polygon", "coordinates": [[[-106.0, 47.0], [-97.0, 47.0], [-97.0, 52.0], [-106.0, 52.0], [-106.0, 47.0]]]}, "properties": {"has_land_points": true, "lat_slice_start": 4000, "lat_slice_stop": 4500, "lon_slice_start": 6300, "lon_slice_stop": 7200, "lat_chunk_ix": 0, "lon_chunk_ix": 111}}, {"type": "Feature", "geometry": {"type": "Polygon", "coordinates": [[[-97.0, 47.0], [-88.0, 47.0], [-88.0, 52.0], [-97.0, 52.0], [-97.0, 47.0]]]}, "properties": {"has_land_points": true, "lat_slice_start": 4000, "lat_slice_stop": 4500, "lon_slice_start": 7200, "lon_slice_stop": 8100, "lat_chunk_ix": 0, "lon_chunk_ix": 112}}, {"type": "Feature", "geometry": {"type": "Polygon", "coordinates": [[[-88.0, 47.0], [-79.0, 47.0], [-79.0, 52.0], [-88.0, 52.0], [-88.0, 47.0]]]}, "properties": {"has_land_points": true, "lat_slice_start": 4000, "lat_slice_stop": 4500, "lon_slice_start": 8100, "lon_slice_stop": 9000, "lat_chunk_ix": 0, "lon_chunk_ix": 113}}, {"type": "Feature", "geometry": {"type": "Polygon", "coordinates": [[[-79.0, 47.0], [-70.0, 47.0], [-70.0, 52.0], [-79.0, 52.0], [-79.0, 47.0]]]}, "properties": {"has_land_points": true, "lat_slice_start": 4000, "lat_slice_stop": 4500, "lon_slice_start": 9000, "lon_slice_stop": 9900, "lat_chunk_ix": 0, "lon_chunk_ix": 114}}, {"type": "Feature", "geometry": {"type": "Polygon", "coordinates": [[[-70.0, 47.0], [-61.0, 47.0], [-61.0, 52.0], [-70.0, 52.0], [-70.0, 47.0]]]}, "properties": {"has_land_points": true, "lat_slice_start": 4000, "lat_slice_stop": 4500, "lon_slice_start": 9900, "lon_slice_stop": 10800, "lat_chunk_ix": 0, "lon_chunk_ix": 115}}, {"type": "Feature", "geometry": {"type": "Polygon", "coordinates": [[[-61.0, 47.0], [-52.0, 47.0], [-52.0, 52.0], [-61.0, 52.0], [-61.0, 47.0]]]}, "properties": {"has_land_points": true, "lat_slice_start": 4000, "lat_slice_stop": 4500, "lon_slice_start": 10800, "lon_slice_stop": 11700, "lat_chunk_ix": 0, "lon_chunk_ix": 116}}, {"type": "Feature", "geometry": {"type": "Polygon", "coordinates": [[[-169.0, 52.0], [-160.0, 52.0], [-160.0, 57.0], [-169.0, 57.0], [-169.0, 52.0]]]}, "properties": {"has_land_points": true, "lat_slice_start": 4500, "lat_slice_stop": 5000, "lon_slice_start": 0, "lon_slice_stop": 900, "lat_chunk_ix": 0, "lon_chunk_ix": 117}}, {"type": "Feature", "geometry": {"type": "Polygon", "coordinates": [[[-160.0, 52.0], [-151.0, 52.0], [-151.0, 57.0], [-160.0, 57.0], [-160.0, 52.0]]]}, "properties": {"has_land_points": true, "lat_slice_start": 4500, "lat_slice_stop": 5000, "lon_slice_start": 900, "lon_slice_stop": 1800, "lat_chunk_ix": 0, "lon_chunk_ix": 118}}, {"type": "Feature", "geometry": {"type": "Polygon", "coordinates": [[[-142.0, 52.0], [-133.0, 52.0], [-133.0, 57.0], [-142.0, 57.0], [-142.0, 52.0]]]}, "properties": {"has_land_points": true, "lat_slice_start": 4500, "lat_slice_stop": 5000, "lon_slice_start": 2700, "lon_slice_stop": 3600, "lat_chunk_ix": 0, "lon_chunk_ix": 120}}, {"type": "Feature", "geometry": {"type": "Polygon", "coordinates": [[[-133.0, 52.0], [-124.0, 52.0], [-124.0, 57.0], [-133.0, 57.0], [-133.0, 52.0]]]}, "properties": {"has_land_points": true, "lat_slice_start": 4500, "lat_slice_stop": 5000, "lon_slice_start": 3600, "lon_slice_stop": 4500, "lat_chunk_ix": 0, "lon_chunk_ix": 121}}, {"type": "Feature", "geometry": {"type": "Polygon", "coordinates": [[[-124.0, 52.0], [-115.0, 52.0], [-115.0, 57.0], [-124.0, 57.0], [-124.0, 52.0]]]}, "properties": {"has_land_points": true, "lat_slice_start": 4500, "lat_slice_stop": 5000, "lon_slice_start": 4500, "lon_slice_stop": 5400, "lat_chunk_ix": 0, "lon_chunk_ix": 122}}, {"type": "Feature", "geometry": {"type": "Polygon", "coordinates": [[[-115.0, 52.0], [-106.0, 52.0], [-106.0, 57.0], [-115.0, 57.0], [-115.0, 52.0]]]}, "properties": {"has_land_points": true, "lat_slice_start": 4500, "lat_slice_stop": 5000, "lon_slice_start": 5400, "lon_slice_stop": 6300, "lat_chunk_ix": 0, "lon_chunk_ix": 123}}, {"type": "Feature", "geometry": {"type": "Polygon", "coordinates": [[[-106.0, 52.0], [-97.0, 52.0], [-97.0, 57.0], [-106.0, 57.0], [-106.0, 52.0]]]}, "properties": {"has_land_points": true, "lat_slice_start": 4500, "lat_slice_stop": 5000, "lon_slice_start": 6300, "lon_slice_stop": 7200, "lat_chunk_ix": 0, "lon_chunk_ix": 124}}, {"type": "Feature", "geometry": {"type": "Polygon", "coordinates": [[[-97.0, 52.0], [-88.0, 52.0], [-88.0, 57.0], [-97.0, 57.0], [-97.0, 52.0]]]}, "properties": {"has_land_points": true, "lat_slice_start": 4500, "lat_slice_stop": 5000, "lon_slice_start": 7200, "lon_slice_stop": 8100, "lat_chunk_ix": 0, "lon_chunk_ix": 125}}, {"type": "Feature", "geometry": {"type": "Polygon", "coordinates": [[[-88.0, 52.0], [-79.0, 52.0], [-79.0, 57.0], [-88.0, 57.0], [-88.0, 52.0]]]}, "properties": {"has_land_points": true, "lat_slice_start": 4500, "lat_slice_stop": 5000, "lon_slice_start": 8100, "lon_slice_stop": 9000, "lat_chunk_ix": 0, "lon_chunk_ix": 126}}, {"type": "Feature", "geometry": {"type": "Polygon", "coordinates": [[[-79.0, 52.0], [-70.0, 52.0], [-70.0, 57.0], [-79.0, 57.0], [-79.0, 52.0]]]}, "properties": {"has_land_points": true, "lat_slice_start": 4500, "lat_slice_stop": 5000, "lon_slice_start": 9000, "lon_slice_stop": 9900, "lat_chunk_ix": 0, "lon_chunk_ix": 127}}, {"type": "Feature", "geometry": {"type": "Polygon", "coordinates": [[[-70.0, 52.0], [-61.0, 52.0], [-61.0, 57.0], [-70.0, 57.0], [-70.0, 52.0]]]}, "properties": {"has_land_points": true, "lat_slice_start": 4500, "lat_slice_stop": 5000, "lon_slice_start": 9900, "lon_slice_stop": 10800, "lat_chunk_ix": 0, "lon_chunk_ix": 128}}, {"type": "Feature", "geometry": {"type": "Polygon", "coordinates": [[[-61.0, 52.0], [-52.0, 52.0], [-52.0, 57.0], [-61.0, 57.0], [-61.0, 52.0]]]}, "properties": {"has_land_points": true, "lat_slice_start": 4500, "lat_slice_stop": 5000, "lon_slice_start": 10800, "lon_slice_stop": 11700, "lat_chunk_ix": 0, "lon_chunk_ix": 129}}, {"type": "Feature", "geometry": {"type": "Polygon", "coordinates": [[[-169.0, 57.0], [-160.0, 57.0], [-160.0, 62.0], [-169.0, 62.0], [-169.0, 57.0]]]}, "properties": {"has_land_points": true, "lat_slice_start": 5000, "lat_slice_stop": 5500, "lon_slice_start": 0, "lon_slice_stop": 900, "lat_chunk_ix": 0, "lon_chunk_ix": 130}}, {"type": "Feature", "geometry": {"type": "Polygon", "coordinates": [[[-160.0, 57.0], [-151.0, 57.0], [-151.0, 62.0], [-160.0, 62.0], [-160.0, 57.0]]]}, "properties": {"has_land_points": true, "lat_slice_start": 5000, "lat_slice_stop": 5500, "lon_slice_start": 900, "lon_slice_stop": 1800, "lat_chunk_ix": 0, "lon_chunk_ix": 131}}, {"type": "Feature", "geometry": {"type": "Polygon", "coordinates": [[[-151.0, 57.0], [-142.0, 57.0], [-142.0, 62.0], [-151.0, 62.0], [-151.0, 57.0]]]}, "properties": {"has_land_points": true, "lat_slice_start": 5000, "lat_slice_stop": 5500, "lon_slice_start": 1800, "lon_slice_stop": 2700, "lat_chunk_ix": 0, "lon_chunk_ix": 132}}, {"type": "Feature", "geometry": {"type": "Polygon", "coordinates": [[[-142.0, 57.0], [-133.0, 57.0], [-133.0, 62.0], [-142.0, 62.0], [-142.0, 57.0]]]}, "properties": {"has_land_points": true, "lat_slice_start": 5000, "lat_slice_stop": 5500, "lon_slice_start": 2700, "lon_slice_stop": 3600, "lat_chunk_ix": 0, "lon_chunk_ix": 133}}, {"type": "Feature", "geometry": {"type": "Polygon", "coordinates": [[[-133.0, 57.0], [-124.0, 57.0], [-124.0, 62.0], [-133.0, 62.0], [-133.0, 57.0]]]}, "properties": {"has_land_points": true, "lat_slice_start": 5000, "lat_slice_stop": 5500, "lon_slice_start": 3600, "lon_slice_stop": 4500, "lat_chunk_ix": 0, "lon_chunk_ix": 134}}, {"type": "Feature", "geometry": {"type": "Polygon", "coordinates": [[[-124.0, 57.0], [-115.0, 57.0], [-115.0, 62.0], [-124.0, 62.0], [-124.0, 57.0]]]}, "properties": {"has_land_points": true, "lat_slice_start": 5000, "lat_slice_stop": 5500, "lon_slice_start": 4500, "lon_slice_stop": 5400, "lat_chunk_ix": 0, "lon_chunk_ix": 135}}, {"type": "Feature", "geometry": {"type": "Polygon", "coordinates": [[[-115.0, 57.0], [-106.0, 57.0], [-106.0, 62.0], [-115.0, 62.0], [-115.0, 57.0]]]}, "properties": {"has_land_points": true, "lat_slice_start": 5000, "lat_slice_stop": 5500, "lon_slice_start": 5400, "lon_slice_stop": 6300, "lat_chunk_ix": 0, "lon_chunk_ix": 136}}, {"type": "Feature", "geometry": {"type": "Polygon", "coordinates": [[[-106.0, 57.0], [-97.0, 57.0], [-97.0, 62.0], [-106.0, 62.0], [-106.0, 57.0]]]}, "properties": {"has_land_points": true, "lat_slice_start": 5000, "lat_slice_stop": 5500, "lon_slice_start": 6300, "lon_slice_stop": 7200, "lat_chunk_ix": 0, "lon_chunk_ix": 137}}, {"type": "Feature", "geometry": {"type": "Polygon", "coordinates": [[[-97.0, 57.0], [-88.0, 57.0], [-88.0, 62.0], [-97.0, 62.0], [-97.0, 57.0]]]}, "properties": {"has_land_points": true, "lat_slice_start": 5000, "lat_slice_stop": 5500, "lon_slice_start": 7200, "lon_slice_stop": 8100, "lat_chunk_ix": 0, "lon_chunk_ix": 138}}, {"type": "Feature", "geometry": {"type": "Polygon", "coordinates": [[[-88.0, 57.0], [-79.0, 57.0], [-79.0, 62.0], [-88.0, 62.0], [-88.0, 57.0]]]}, "properties": {"has_land_points": true, "lat_slice_start": 5000, "lat_slice_stop": 5500, "lon_slice_start": 8100, "lon_slice_stop": 9000, "lat_chunk_ix": 0, "lon_chunk_ix": 139}}, {"type": "Feature", "geometry": {"type": "Polygon", "coordinates": [[[-79.0, 57.0], [-70.0, 57.0], [-70.0, 62.0], [-79.0, 62.0], [-79.0, 57.0]]]}, "properties": {"has_land_points": true, "lat_slice_start": 5000, "lat_slice_stop": 5500, "lon_slice_start": 9000, "lon_slice_stop": 9900, "lat_chunk_ix": 0, "lon_chunk_ix": 140}}, {"type": "Feature", "geometry": {"type": "Polygon", "coordinates": [[[-70.0, 57.0], [-61.0, 57.0], [-61.0, 62.0], [-70.0, 62.0], [-70.0, 57.0]]]}, "properties": {"has_land_points": true, "lat_slice_start": 5000, "lat_slice_stop": 5500, "lon_slice_start": 9900, "lon_slice_stop": 10800, "lat_chunk_ix": 0, "lon_chunk_ix": 141}}, {"type": "Feature", "geometry": {"type": "Polygon", "coordinates": [[[-169.0, 62.0], [-160.0, 62.0], [-160.0, 67.0], [-169.0, 67.0], [-169.0, 62.0]]]}, "properties": {"has_land_points": true, "lat_slice_start": 5500, "lat_slice_stop": 6000, "lon_slice_start": 0, "lon_slice_stop": 900, "lat_chunk_ix": 0, "lon_chunk_ix": 143}}, {"type": "Feature", "geometry": {"type": "Polygon", "coordinates": [[[-160.0, 62.0], [-151.0, 62.0], [-151.0, 67.0], [-160.0, 67.0], [-160.0, 62.0]]]}, "properties": {"has_land_points": true, "lat_slice_start": 5500, "lat_slice_stop": 6000, "lon_slice_start": 900, "lon_slice_stop": 1800, "lat_chunk_ix": 0, "lon_chunk_ix": 144}}, {"type": "Feature", "geometry": {"type": "Polygon", "coordinates": [[[-151.0, 62.0], [-142.0, 62.0], [-142.0, 67.0], [-151.0, 67.0], [-151.0, 62.0]]]}, "properties": {"has_land_points": true, "lat_slice_start": 5500, "lat_slice_stop": 6000, "lon_slice_start": 1800, "lon_slice_stop": 2700, "lat_chunk_ix": 0, "lon_chunk_ix": 145}}, {"type": "Feature", "geometry": {"type": "Polygon", "coordinates": [[[-142.0, 62.0], [-133.0, 62.0], [-133.0, 67.0], [-142.0, 67.0], [-142.0, 62.0]]]}, "properties": {"has_land_points": true, "lat_slice_start": 5500, "lat_slice_stop": 6000, "lon_slice_start": 2700, "lon_slice_stop": 3600, "lat_chunk_ix": 0, "lon_chunk_ix": 146}}, {"type": "Feature", "geometry": {"type": "Polygon", "coordinates": [[[-133.0, 62.0], [-124.0, 62.0], [-124.0, 67.0], [-133.0, 67.0], [-133.0, 62.0]]]}, "properties": {"has_land_points": true, "lat_slice_start": 5500, "lat_slice_stop": 6000, "lon_slice_start": 3600, "lon_slice_stop": 4500, "lat_chunk_ix": 0, "lon_chunk_ix": 147}}, {"type": "Feature", "geometry": {"type": "Polygon", "coordinates": [[[-124.0, 62.0], [-115.0, 62.0], [-115.0, 67.0], [-124.0, 67.0], [-124.0, 62.0]]]}, "properties": {"has_land_points": true, "lat_slice_start": 5500, "lat_slice_stop": 6000, "lon_slice_start": 4500, "lon_slice_stop": 5400, "lat_chunk_ix": 0, "lon_chunk_ix": 148}}, {"type": "Feature", "geometry": {"type": "Polygon", "coordinates": [[[-115.0, 62.0], [-106.0, 62.0], [-106.0, 67.0], [-115.0, 67.0], [-115.0, 62.0]]]}, "properties": {"has_land_points": true, "lat_slice_start": 5500, "lat_slice_stop": 6000, "lon_slice_start": 5400, "lon_slice_stop": 6300, "lat_chunk_ix": 0, "lon_chunk_ix": 149}}, {"type": "Feature", "geometry": {"type": "Polygon", "coordinates": [[[-106.0, 62.0], [-97.0, 62.0], [-97.0, 67.0], [-106.0, 67.0], [-106.0, 62.0]]]}, "properties": {"has_land_points": true, "lat_slice_start": 5500, "lat_slice_stop": 6000, "lon_slice_start": 6300, "lon_slice_stop": 7200, "lat_chunk_ix": 0, "lon_chunk_ix": 150}}, {"type": "Feature", "geometry": {"type": "Polygon", "coordinates": [[[-97.0, 62.0], [-88.0, 62.0], [-88.0, 67.0], [-97.0, 67.0], [-97.0, 62.0]]]}, "properties": {"has_land_points": true, "lat_slice_start": 5500, "lat_slice_stop": 6000, "lon_slice_start": 7200, "lon_slice_stop": 8100, "lat_chunk_ix": 0, "lon_chunk_ix": 151}}, {"type": "Feature", "geometry": {"type": "Polygon", "coordinates": [[[-88.0, 62.0], [-79.0, 62.0], [-79.0, 67.0], [-88.0, 67.0], [-88.0, 62.0]]]}, "properties": {"has_land_points": true, "lat_slice_start": 5500, "lat_slice_stop": 6000, "lon_slice_start": 8100, "lon_slice_stop": 9000, "lat_chunk_ix": 0, "lon_chunk_ix": 152}}, {"type": "Feature", "geometry": {"type": "Polygon", "coordinates": [[[-79.0, 62.0], [-70.0, 62.0], [-70.0, 67.0], [-79.0, 67.0], [-79.0, 62.0]]]}, "properties": {"has_land_points": true, "lat_slice_start": 5500, "lat_slice_stop": 6000, "lon_slice_start": 9000, "lon_slice_stop": 9900, "lat_chunk_ix": 0, "lon_chunk_ix": 153}}, {"type": "Feature", "geometry": {"type": "Polygon", "coordinates": [[[-70.0, 62.0], [-61.0, 62.0], [-61.0, 67.0], [-70.0, 67.0], [-70.0, 62.0]]]}, "properties": {"has_land_points": true, "lat_slice_start": 5500, "lat_slice_stop": 6000, "lon_slice_start": 9900, "lon_slice_stop": 10800, "lat_chunk_ix": 0, "lon_chunk_ix": 154}}, {"type": "Feature", "geometry": {"type": "Polygon", "coordinates": [[[-169.0, 67.0], [-160.0, 67.0], [-160.0, 72.0], [-169.0, 72.0], [-169.0, 67.0]]]}, "properties": {"has_land_points": true, "lat_slice_start": 6000, "lat_slice_stop": 6500, "lon_slice_start": 0, "lon_slice_stop": 900, "lat_chunk_ix": 0, "lon_chunk_ix": 156}}, {"type": "Feature", "geometry": {"type": "Polygon", "coordinates": [[[-160.0, 67.0], [-151.0, 67.0], [-151.0, 72.0], [-160.0, 72.0], [-160.0, 67.0]]]}, "properties": {"has_land_points": true, "lat_slice_start": 6000, "lat_slice_stop": 6500, "lon_slice_start": 900, "lon_slice_stop": 1800, "lat_chunk_ix": 0, "lon_chunk_ix": 157}}, {"type": "Feature", "geometry": {"type": "Polygon", "coordinates": [[[-151.0, 67.0], [-142.0, 67.0], [-142.0, 72.0], [-151.0, 72.0], [-151.0, 67.0]]]}, "properties": {"has_land_points": true, "lat_slice_start": 6000, "lat_slice_stop": 6500, "lon_slice_start": 1800, "lon_slice_stop": 2700, "lat_chunk_ix": 0, "lon_chunk_ix": 158}}, {"type": "Feature", "geometry": {"type": "Polygon", "coordinates": [[[-142.0, 67.0], [-133.0, 67.0], [-133.0, 72.0], [-142.0, 72.0], [-142.0, 67.0]]]}, "properties": {"has_land_points": true, "lat_slice_start": 6000, "lat_slice_stop": 6500, "lon_slice_start": 2700, "lon_slice_stop": 3600, "lat_chunk_ix": 0, "lon_chunk_ix": 159}}, {"type": "Feature", "geometry": {"type": "Polygon", "coordinates": [[[-133.0, 67.0], [-124.0, 67.0], [-124.0, 72.0], [-133.0, 72.0], [-133.0, 67.0]]]}, "properties": {"has_land_points": true, "lat_slice_start": 6000, "lat_slice_stop": 6500, "lon_slice_start": 3600, "lon_slice_stop": 4500, "lat_chunk_ix": 0, "lon_chunk_ix": 160}}, {"type": "Feature", "geometry": {"type": "Polygon", "coordinates": [[[-124.0, 67.0], [-115.0, 67.0], [-115.0, 72.0], [-124.0, 72.0], [-124.0, 67.0]]]}, "properties": {"has_land_points": true, "lat_slice_start": 6000, "lat_slice_stop": 6500, "lon_slice_start": 4500, "lon_slice_stop": 5400, "lat_chunk_ix": 0, "lon_chunk_ix": 161}}, {"type": "Feature", "geometry": {"type": "Polygon", "coordinates": [[[-115.0, 67.0], [-106.0, 67.0], [-106.0, 72.0], [-115.0, 72.0], [-115.0, 67.0]]]}, "properties": {"has_land_points": true, "lat_slice_start": 6000, "lat_slice_stop": 6500, "lon_slice_start": 5400, "lon_slice_stop": 6300, "lat_chunk_ix": 0, "lon_chunk_ix": 162}}, {"type": "Feature", "geometry": {"type": "Polygon", "coordinates": [[[-106.0, 67.0], [-97.0, 67.0], [-97.0, 72.0], [-106.0, 72.0], [-106.0, 67.0]]]}, "properties": {"has_land_points": true, "lat_slice_start": 6000, "lat_slice_stop": 6500, "lon_slice_start": 6300, "lon_slice_stop": 7200, "lat_chunk_ix": 0, "lon_chunk_ix": 163}}, {"type": "Feature", "geometry": {"type": "Polygon", "coordinates": [[[-97.0, 67.0], [-88.0, 67.0], [-88.0, 72.0], [-97.0, 72.0], [-97.0, 67.0]]]}, "properties": {"has_land_points": true, "lat_slice_start": 6000, "lat_slice_stop": 6500, "lon_slice_start": 7200, "lon_slice_stop": 8100, "lat_chunk_ix": 0, "lon_chunk_ix": 164}}, {"type": "Feature", "geometry": {"type": "Polygon", "coordinates": [[[-88.0, 67.0], [-79.0, 67.0], [-79.0, 72.0], [-88.0, 72.0], [-88.0, 67.0]]]}, "properties": {"has_land_points": true, "lat_slice_start": 6000, "lat_slice_stop": 6500, "lon_slice_start": 8100, "lon_slice_stop": 9000, "lat_chunk_ix": 0, "lon_chunk_ix": 165}}, {"type": "Feature", "geometry": {"type": "Polygon", "coordinates": [[[-79.0, 67.0], [-70.0, 67.0], [-70.0, 72.0], [-79.0, 72.0], [-79.0, 67.0]]]}, "properties": {"has_land_points": true, "lat_slice_start": 6000, "lat_slice_stop": 6500, "lon_slice_start": 9000, "lon_slice_stop": 9900, "lat_chunk_ix": 0, "lon_chunk_ix": 166}}, {"type": "Feature", "geometry": {"type": "Polygon", "coordinates": [[[-70.0, 67.0], [-61.0, 67.0], [-61.0, 72.0], [-70.0, 72.0], [-70.0, 67.0]]]}, "properties": {"has_land_points": true, "lat_slice_start": 6000, "lat_slice_stop": 6500, "lon_slice_start": 9900, "lon_slice_stop": 10800, "lat_chunk_ix": 0, "lon_chunk_ix": 167}}]}